{
    "hasZ": true,
    "type": "FeatureCollection",
    "features": [
        {
            "type": "Feature",
            "id": 1,
            "geometry": {
                "type": "Polygon",
                "coordinates": [
                    [
                        [
                            -74.498611110999946,
                            39.593055556000024,
                            0
                        ],
                        [
                            -74.194444443999942,
                            39.579166667000038,
                            0
                        ],
                        [
                            -74.06087632699996,
                            39.664139333000037,
                            0
                        ],
                        [
                            -74.060841899999957,
                            39.66412310000004,
                            0
                        ],
                        [
                            -74.060808657999985,
                            39.664149422000037,
                            0
                        ],
                        [
                            -74.060833332999948,
                            39.664166667000075,
                            0
                        ],
                        [
                            -74.060519890999956,
                            39.664378084000077,
                            0
                        ],
                        [
                            -73.809722221999948,
                            39.833333333000041,
                            0
                        ],
                        [
                            -73.807138471999963,
                            39.864727273000028,
                            0
                        ],
                        [
                            -73.807116305999955,
                            39.864996543000075,
                            0
                        ],
                        [
                            -73.799999999999955,
                            39.951388889000043,
                            0
                        ],
                        [
                            -73.737112140999955,
                            40.04098212100007,
                            0
                        ],
                        [
                            -73.798603888999935,
                            40.063929167000026,
                            0
                        ],
                        [
                            -73.895819166999956,
                            40.137531944000045,
                            0
                        ],
                        [
                            -73.999918610999941,
                            40.154205833000049,
                            0
                        ],
                        [
                            -74.135297778999984,
                            40.015869167000062,
                            0
                        ],
                        [
                            -74.394986699999947,
                            39.755405000000053,
                            0
                        ],
                        [
                            -74.455555555999979,
                            39.655833333000032,
                            0
                        ],
                        [
                            -74.498611110999946,
                            39.593055556000024,
                            0
                        ]
                    ]
                ]
            },
            "properties": {
                "OBJECTID": 1,
                "Position": "N66",
                "Low": 7000,
                "High": 10000,
                "Notes": null,
                "Fill": "#0D00F0",
                "Stroke": "#0D00F0",
                "Sector": "MANTA"
            }
        },
        {
            "type": "Feature",
            "id": 2,
            "geometry": {
                "type": "Polygon",
                "coordinates": [
                    [
                        [
                            -74.194444443999942,
                            39.579166667000038,
                            0
                        ],
                        [
                            -74.098888888999966,
                            39.475555556000074,
                            0
                        ],
                        [
                            -74.042777777999959,
                            39.428333333000069,
                            0
                        ],
                        [
                            -73.933341900999949,
                            39.574955800000055,
                            0
                        ],
                        [
                            -73.81413219999996,
                            39.642850000000067,
                            0
                        ],
                        [
                            -73.682759199999964,
                            39.733257500000036,
                            0
                        ],
                        [
                            -73.464166666999972,
                            39.733333333000076,
                            0
                        ],
                        [
                            -73.283333332999973,
                            39.733333333000076,
                            0
                        ],
                        [
                            -73.149999999999977,
                            39.733333333000076,
                            0
                        ],
                        [
                            -72.883611110999936,
                            39.733333333000076,
                            0
                        ],
                        [
                            -72.86527777799995,
                            39.85222222200008,
                            0
                        ],
                        [
                            -73.008333332999939,
                            39.994444444000067,
                            0
                        ],
                        [
                            -72.923882704999983,
                            40.070677068000066,
                            0
                        ],
                        [
                            -73.114857771999937,
                            40.180316362000042,
                            0
                        ],
                        [
                            -72.982684443999972,
                            40.289163611000049,
                            0
                        ],
                        [
                            -73.252933055999961,
                            40.408815556000036,
                            0
                        ],
                        [
                            -73.482855291999954,
                            40.363163685000075,
                            0
                        ],
                        [
                            -73.545709013999954,
                            40.352410662000068,
                            0
                        ],
                        [
                            -73.635861666999972,
                            40.329900000000066,
                            0
                        ],
                        [
                            -73.698611110999934,
                            40.238888889000066,
                            0
                        ],
                        [
                            -73.749999999999943,
                            40.161111111000025,
                            0
                        ],
                        [
                            -73.668055555999956,
                            40.136111111000048,
                            0
                        ],
                        [
                            -73.686066429999983,
                            40.108584482000026,
                            0
                        ],
                        [
                            -73.737112140999955,
                            40.04098212100007,
                            0
                        ],
                        [
                            -73.799999999999955,
                            39.951388889000043,
                            0
                        ],
                        [
                            -73.807116305999955,
                            39.864996543000075,
                            0
                        ],
                        [
                            -73.807138471999963,
                            39.864727273000028,
                            0
                        ],
                        [
                            -73.809722221999948,
                            39.833333333000041,
                            0
                        ],
                        [
                            -74.060519890999956,
                            39.664378084000077,
                            0
                        ],
                        [
                            -74.060808657999985,
                            39.664149423000026,
                            0
                        ],
                        [
                            -74.060841899999957,
                            39.66412310000004,
                            0
                        ],
                        [
                            -74.060876327999949,
                            39.664139333000037,
                            0
                        ],
                        [
                            -74.194444443999942,
                            39.579166667000038,
                            0
                        ]
                    ]
                ]
            },
            "properties": {
                "OBJECTID": 2,
                "Position": "N66",
                "Low": 0,
                "High": 23000,
                "Notes": null,
                "Fill": "#0D00F0",
                "Stroke": "#0D00F0",
                "Sector": "MANTA"
            }
        },
        {
            "type": "Feature",
            "id": 3,
            "geometry": {
                "type": "Polygon",
                "coordinates": [
                    [
                        [
                            -73.252933055999961,
                            40.408815556000036,
                            0
                        ],
                        [
                            -73.400570769999945,
                            40.478969664000033,
                            0
                        ],
                        [
                            -73.495638019999944,
                            40.522383572000081,
                            0
                        ],
                        [
                            -73.497647079999979,
                            40.523300736000067,
                            0
                        ],
                        [
                            -73.58791215499997,
                            40.397143100000051,
                            0
                        ],
                        [
                            -73.635861666999972,
                            40.329900000000066,
                            0
                        ],
                        [
                            -73.545709013999954,
                            40.352410662000068,
                            0
                        ],
                        [
                            -73.482855291999954,
                            40.363163685000075,
                            0
                        ],
                        [
                            -73.252933055999961,
                            40.408815556000036,
                            0
                        ]
                    ]
                ]
            },
            "properties": {
                "OBJECTID": 3,
                "Position": "N66",
                "Low": 14000,
                "High": 19000,
                "Notes": null,
                "Fill": "#0D00F0",
                "Stroke": "#0D00F0",
                "Sector": "MANTA"
            }
        },
        {
            "type": "Feature",
            "id": 4,
            "geometry": {
                "type": "Polygon",
                "coordinates": [
                    [
                        [
                            -72.982684443999972,
                            40.289163611000049,
                            0
                        ],
                        [
                            -73.114857771999937,
                            40.180316362000042,
                            0
                        ],
                        [
                            -72.923882704999983,
                            40.070677068000066,
                            0
                        ],
                        [
                            -72.781944443999976,
                            40.198611111000048,
                            0
                        ],
                        [
                            -72.982684443999972,
                            40.289163611000049,
                            0
                        ]
                    ]
                ]
            },
            "properties": {
                "OBJECTID": 4,
                "Position": "N66",
                "Low": 9000,
                "High": 23000,
                "Notes": null,
                "Fill": "#0D00F0",
                "Stroke": "#0D00F0",
                "Sector": "MANTA"
            }
        },
        {
            "type": "Feature",
            "id": 5,
            "geometry": {
                "type": "Polygon",
                "coordinates": [
                    [
                        [
                            -72.781944443999976,
                            40.198611111000048,
                            0
                        ],
                        [
                            -72.923882704999983,
                            40.070677068000066,
                            0
                        ],
                        [
                            -72.738509875999966,
                            39.963723722000054,
                            0
                        ],
                        [
                            -72.697222221999937,
                            40.000000000000057,
                            0
                        ],
                        [
                            -72.499999999999943,
                            40.07222222200005,
                            0
                        ],
                        [
                            -72.781944443999976,
                            40.198611111000048,
                            0
                        ]
                    ]
                ]
            },
            "properties": {
                "OBJECTID": 5,
                "Position": "N66",
                "Low": 0,
                "High": 23000,
                "Notes": null,
                "Fill": "#0D00F0",
                "Stroke": "#0D00F0",
                "Sector": "MANTA"
            }
        },
        {
            "type": "Feature",
            "id": 6,
            "geometry": {
                "type": "Polygon",
                "coordinates": [
                    [
                        [
                            -72.86527777799995,
                            39.85222222200008,
                            0
                        ],
                        [
                            -72.738509875999966,
                            39.963723722000054,
                            0
                        ],
                        [
                            -72.923882704999983,
                            40.070677068000066,
                            0
                        ],
                        [
                            -73.008333332999939,
                            39.994444444000067,
                            0
                        ],
                        [
                            -72.86527777799995,
                            39.85222222200008,
                            0
                        ]
                    ]
                ]
            },
            "properties": {
                "OBJECTID": 6,
                "Position": "N66",
                "Low": 6000,
                "High": 23000,
                "Notes": null,
                "Fill": "#0D00F0",
                "Stroke": "#0D00F0",
                "Sector": "MANTA"
            }
        },
        {
            "type": "Feature",
            "id": 7,
            "geometry": {
                "type": "Polygon",
                "coordinates": [
                    [
                        [
                            -74.042777777999959,
                            39.428333333000069,
                            0
                        ],
                        [
                            -73.763055555999983,
                            39.415277778000075,
                            0
                        ],
                        [
                            -73.464166666999972,
                            39.733333333000076,
                            0
                        ],
                        [
                            -73.682759199999964,
                            39.733257500000036,
                            0
                        ],
                        [
                            -73.81413219999996,
                            39.642850000000067,
                            0
                        ],
                        [
                            -73.933341900999949,
                            39.574955800000055,
                            0
                        ],
                        [
                            -74.042777777999959,
                            39.428333333000069,
                            0
                        ]
                    ]
                ]
            },
            "properties": {
                "OBJECTID": 7,
                "Position": "N66",
                "Low": 7000,
                "High": 23000,
                "Notes": null,
                "Fill": "#0D00F0",
                "Stroke": "#0D00F0",
                "Sector": "MANTA"
            }
        },
        {
            "type": "Feature",
            "id": 8,
            "geometry": {
                "type": "Polygon",
                "coordinates": [
                    [
                        [
                            -73.763055555999983,
                            39.415277778000075,
                            0
                        ],
                        [
                            -74.042777777999959,
                            39.428333333000069,
                            0
                        ],
                        [
                            -73.926388888999952,
                            39.31444444400006,
                            0
                        ],
                        [
                            -73.763055555999983,
                            39.415277778000075,
                            0
                        ]
                    ]
                ]
            },
            "properties": {
                "OBJECTID": 8,
                "Position": "N66",
                "Low": 8000,
                "High": 23000,
                "Notes": null,
                "Fill": "#0D00F0",
                "Stroke": "#0D00F0",
                "Sector": "MANTA"
            }
        },
        {
            "type": "Feature",
            "id": 9,
            "geometry": {
                "type": "Polygon",
                "coordinates": [
                    [
                        [
                            -73.926388888999952,
                            39.31444444400006,
                            0
                        ],
                        [
                            -73.658333332999973,
                            39.034722222000028,
                            0
                        ],
                        [
                            -73.166666666999959,
                            39.683333333000064,
                            0
                        ],
                        [
                            -73.149999999999977,
                            39.733333333000076,
                            0
                        ],
                        [
                            -73.283333332999973,
                            39.733333333000076,
                            0
                        ],
                        [
                            -73.464166666999972,
                            39.733333333000076,
                            0
                        ],
                        [
                            -73.763055555999983,
                            39.415277778000075,
                            0
                        ],
                        [
                            -73.926388888999952,
                            39.31444444400006,
                            0
                        ]
                    ]
                ]
            },
            "properties": {
                "OBJECTID": 9,
                "Position": "N66",
                "Low": 8000,
                "High": 23000,
                "Notes": null,
                "Fill": "#0D00F0",
                "Stroke": "#0D00F0",
                "Sector": "MANTA"
            }
        },
        {
            "type": "Feature",
            "id": 10,
            "geometry": {
                "type": "Polygon",
                "coordinates": [
                    [
                        [
                            -68.998888888999943,
                            38.559166667000056,
                            0
                        ],
                        [
                            -68.883333332999939,
                            38.584722222000039,
                            0
                        ],
                        [
                            -67.58833333299998,
                            38.878611111000055,
                            0
                        ],
                        [
                            -67.561388888999943,
                            38.884166667000045,
                            0
                        ],
                        [
                            -67.249999999999943,
                            38.950833333000048,
                            0
                        ],
                        [
                            -66.999999999999943,
                            39.000000000000057,
                            0
                        ],
                        [
                            -66.999999999999943,
                            39.116388889000064,
                            0
                        ],
                        [
                            -66.999999999999943,
                            39.160833333000028,
                            0
                        ],
                        [
                            -66.999999999999943,
                            39.611111111000071,
                            0
                        ],
                        [
                            -68.246858799999984,
                            39.581716564000033,
                            0
                        ],
                        [
                            -69.687499999999943,
                            40.84583333300003,
                            0
                        ],
                        [
                            -70.879444443999944,
                            40.57666666700004,
                            0
                        ],
                        [
                            -68.998888888999943,
                            38.559166667000056,
                            0
                        ]
                    ]
                ]
            },
            "properties": {
                "OBJECTID": 10,
                "Position": "N65",
                "Low": 5500,
                "High": 60000,
                "Notes": null,
                "Fill": "#004BCC",
                "Stroke": "#004BCC",
                "Sector": "JOBOC"
            }
        },
        {
            "type": "Feature",
            "id": 11,
            "geometry": {
                "type": "Polygon",
                "coordinates": [
                    [
                        [
                            -69.687499999999943,
                            40.84583333300003,
                            0
                        ],
                        [
                            -68.246858799999984,
                            39.581716564000033,
                            0
                        ],
                        [
                            -66.999999999999943,
                            39.611111111000071,
                            0
                        ],
                        [
                            -66.999999999999943,
                            39.851388889000077,
                            0
                        ],
                        [
                            -66.999999999999943,
                            40.116666667000061,
                            0
                        ],
                        [
                            -66.999999999999943,
                            40.611111111000071,
                            0
                        ],
                        [
                            -66.999999999999943,
                            41.084722222000039,
                            0
                        ],
                        [
                            -67.000277777999941,
                            41.116666667000061,
                            0
                        ],
                        [
                            -66.999999999999943,
                            41.151388889000032,
                            0
                        ],
                        [
                            -66.999999999999943,
                            41.616666667000061,
                            0
                        ],
                        [
                            -68.999999999999943,
                            41.000000000000057,
                            0
                        ],
                        [
                            -69.34166666699997,
                            40.925000000000068,
                            0
                        ],
                        [
                            -69.687499999999943,
                            40.84583333300003,
                            0
                        ]
                    ]
                ]
            },
            "properties": {
                "OBJECTID": 11,
                "Position": "N65",
                "Low": 5500,
                "High": 50000,
                "Notes": null,
                "Fill": "#004BCC",
                "Stroke": "#004BCC",
                "Sector": "JOBOC"
            }
        },
        {
            "type": "Feature",
            "id": 12,
            "geometry": {
                "type": "Polygon",
                "coordinates": [
                    [
                        [
                            -74.267222221999987,
                            33.357500000000073,
                            0
                        ],
                        [
                            -73.689722221999943,
                            33.756944444000055,
                            0
                        ],
                        [
                            -71.999999999999943,
                            35.000000000000057,
                            0
                        ],
                        [
                            -71.999999999999943,
                            35.28111111100003,
                            0
                        ],
                        [
                            -71.999999999999943,
                            36.333333333000041,
                            0
                        ],
                        [
                            -72.126111110999943,
                            36.808888889000059,
                            0
                        ],
                        [
                            -72.476666666999961,
                            36.725277778000077,
                            0
                        ],
                        [
                            -72.666111110999964,
                            36.702500000000043,
                            0
                        ],
                        [
                            -72.666408987999944,
                            35.843620986000076,
                            0
                        ],
                        [
                            -72.666388888999961,
                            35.84361111100003,
                            0
                        ],
                        [
                            -72.666666666999959,
                            35.093055556000024,
                            0
                        ],
                        [
                            -73.573055555999986,
                            34.488055556000063,
                            0
                        ],
                        [
                            -73.759166666999988,
                            34.362500000000068,
                            0
                        ],
                        [
                            -73.949999999999989,
                            34.233333333000076,
                            0
                        ],
                        [
                            -74.68111111099995,
                            33.729166667000072,
                            0
                        ],
                        [
                            -74.267222221999987,
                            33.357500000000073,
                            0
                        ]
                    ]
                ]
            },
            "properties": {
                "OBJECTID": 12,
                "Position": "N83",
                "Low": 31000,
                "High": 60000,
                "Notes": null,
                "Fill": "#1C004A",
                "Stroke": "#1C004A",
                "Sector": "PAEPR"
            }
        },
        {
            "type": "Feature",
            "id": 13,
            "geometry": {
                "type": "Polygon",
                "coordinates": [
                    [
                        [
                            -74.68111111099995,
                            33.729166667000072,
                            0
                        ],
                        [
                            -73.949999999999989,
                            34.233333333000076,
                            0
                        ],
                        [
                            -73.759166666999988,
                            34.362500000000068,
                            0
                        ],
                        [
                            -73.573055555999986,
                            34.488055556000063,
                            0
                        ],
                        [
                            -72.666666666999959,
                            35.093055556000024,
                            0
                        ],
                        [
                            -72.666388888999961,
                            35.84361111100003,
                            0
                        ],
                        [
                            -72.666408987999944,
                            35.843620986000076,
                            0
                        ],
                        [
                            -72.666111110999964,
                            36.702500000000043,
                            0
                        ],
                        [
                            -74.49138888899995,
                            36.783611111000027,
                            0
                        ],
                        [
                            -74.599722221999968,
                            36.787777778000077,
                            0
                        ],
                        [
                            -74.936944443999948,
                            35.496944444000064,
                            0
                        ],
                        [
                            -75.189999999999941,
                            35.308055556000056,
                            0
                        ],
                        [
                            -75.683888888999945,
                            34.600277778000077,
                            0
                        ],
                        [
                            -74.68111111099995,
                            33.729166667000072,
                            0
                        ]
                    ]
                ]
            },
            "properties": {
                "OBJECTID": 13,
                "Position": "N83",
                "Low": 24000,
                "High": 60000,
                "Notes": null,
                "Fill": "#1C004A",
                "Stroke": "#1C004A",
                "Sector": "PAEPR"
            }
        },
        {
            "type": "Feature",
            "id": 14,
            "geometry": {
                "type": "Polygon",
                "coordinates": [
                    [
                        [
                            -73.008333332999939,
                            39.994444444000067,
                            0
                        ],
                        [
                            -73.149999999999977,
                            39.733333333000076,
                            0
                        ],
                        [
                            -72.883611110999936,
                            39.733333333000076,
                            0
                        ],
                        [
                            -72.86527777799995,
                            39.85222222200008,
                            0
                        ],
                        [
                            -72.738509875999966,
                            39.963723722000054,
                            0
                        ],
                        [
                            -72.697222221999937,
                            40.000000000000057,
                            0
                        ],
                        [
                            -72.499999999999943,
                            40.07222222200005,
                            0
                        ],
                        [
                            -72.781944443999976,
                            40.198611111000048,
                            0
                        ],
                        [
                            -72.923882704999983,
                            40.070677068000066,
                            0
                        ],
                        [
                            -73.008333332999939,
                            39.994444444000067,
                            0
                        ]
                    ]
                ]
            },
            "properties": {
                "OBJECTID": 14,
                "Position": "N86",
                "Low": 24000,
                "High": 30000,
                "Notes": null,
                "Fill": "#1C008F",
                "Stroke": "#1C008F",
                "Sector": "Atlantic"
            }
        },
        {
            "type": "Feature",
            "id": 15,
            "geometry": {
                "type": "Polygon",
                "coordinates": [
                    [
                        [
                            -72.86527777799995,
                            39.85222222200008,
                            0
                        ],
                        [
                            -72.732777777999956,
                            39.733333333000076,
                            0
                        ],
                        [
                            -72.499444443999948,
                            39.56666666700005,
                            0
                        ],
                        [
                            -72.499444443999948,
                            39.801666667000063,
                            0
                        ],
                        [
                            -72.738509875999966,
                            39.963723722000054,
                            0
                        ],
                        [
                            -72.86527777799995,
                            39.85222222200008,
                            0
                        ]
                    ]
                ]
            },
            "properties": {
                "OBJECTID": 15,
                "Position": "N86",
                "Low": 6000,
                "High": 60000,
                "Notes": null,
                "Fill": "#1C008F",
                "Stroke": "#1C008F",
                "Sector": "Atlantic"
            }
        },
        {
            "type": "Feature",
            "id": 16,
            "geometry": {
                "type": "Polygon",
                "coordinates": [
                    [
                        [
                            -72.499999999999943,
                            40.07222222200005,
                            0
                        ],
                        [
                            -72.697222221999937,
                            40.000000000000057,
                            0
                        ],
                        [
                            -72.738509875999966,
                            39.963723722000054,
                            0
                        ],
                        [
                            -72.499444443999948,
                            39.801666667000063,
                            0
                        ],
                        [
                            -72.499999999999943,
                            40.07222222200005,
                            0
                        ]
                    ]
                ]
            },
            "properties": {
                "OBJECTID": 16,
                "Position": "N86",
                "Low": 11000,
                "High": 60000,
                "Notes": null,
                "Fill": "#1C008F",
                "Stroke": "#1C008F",
                "Sector": "Atlantic"
            }
        },
        {
            "type": "Feature",
            "id": 17,
            "geometry": {
                "type": "Polygon",
                "coordinates": [
                    [
                        [
                            -72.499999999999943,
                            40.07222222200005,
                            0
                        ],
                        [
                            -72.499444443999948,
                            39.801666667000063,
                            0
                        ],
                        [
                            -72.499444443999948,
                            39.73294220300005,
                            0
                        ],
                        [
                            -72.193055555999933,
                            39.649166667000031,
                            0
                        ],
                        [
                            -71.569444443999942,
                            39.199444444000051,
                            0
                        ],
                        [
                            -71.043566572999964,
                            38.740221729000041,
                            0
                        ],
                        [
                            -70.990848107999966,
                            38.799802825000029,
                            0
                        ],
                        [
                            -70.912567349999961,
                            38.888181959000065,
                            0
                        ],
                        [
                            -70.817994746999943,
                            38.99480813200006,
                            0
                        ],
                        [
                            -70.749547432999975,
                            39.071879210000077,
                            0
                        ],
                        [
                            -71.256944443999942,
                            39.477777778000075,
                            0
                        ],
                        [
                            -71.562777777999941,
                            39.645000000000039,
                            0
                        ],
                        [
                            -72.406185771999958,
                            40.029577891000031,
                            0
                        ],
                        [
                            -72.499999999999943,
                            40.07222222200005,
                            0
                        ]
                    ]
                ]
            },
            "properties": {
                "OBJECTID": 17,
                "Position": "N86",
                "Low": 6000,
                "High": 60000,
                "Notes": null,
                "Fill": "#1C008F",
                "Stroke": "#1C008F",
                "Sector": "Atlantic"
            }
        },
        {
            "type": "Feature",
            "id": 18,
            "geometry": {
                "type": "Polygon",
                "coordinates": [
                    [
                        [
                            -70.749547432999975,
                            39.071879210000077,
                            0
                        ],
                        [
                            -69.644444443999987,
                            38.179722222000066,
                            0
                        ],
                        [
                            -69.577499999999986,
                            38.243055556000058,
                            0
                        ],
                        [
                            -69.399444443999982,
                            38.464444444000037,
                            0
                        ],
                        [
                            -68.998888888999943,
                            38.559166667000056,
                            0
                        ],
                        [
                            -70.879444443999944,
                            40.57666666700004,
                            0
                        ],
                        [
                            -71.499999999999943,
                            40.389722222000046,
                            0
                        ],
                        [
                            -72.499999999999943,
                            40.07222222200005,
                            0
                        ],
                        [
                            -72.406185771999958,
                            40.029577891000031,
                            0
                        ],
                        [
                            -71.562777777999941,
                            39.645000000000039,
                            0
                        ],
                        [
                            -71.256944443999942,
                            39.477777778000075,
                            0
                        ],
                        [
                            -70.749547432999975,
                            39.071879210000077,
                            0
                        ]
                    ]
                ]
            },
            "properties": {
                "OBJECTID": 18,
                "Position": "N86",
                "Low": 11000,
                "High": 60000,
                "Notes": null,
                "Fill": "#1C008F",
                "Stroke": "#1C008F",
                "Sector": "Atlantic"
            }
        },
        {
            "type": "Feature",
            "id": 19,
            "geometry": {
                "type": "Polygon",
                "coordinates": [
                    [
                        [
                            -73.658333332999973,
                            39.034722222000028,
                            0
                        ],
                        [
                            -73.861111110999957,
                            38.737500000000068,
                            0
                        ],
                        [
                            -72.833888888999979,
                            38.28333333300003,
                            0
                        ],
                        [
                            -72.799999999999955,
                            38.333333333000041,
                            0
                        ],
                        [
                            -72.499999999999943,
                            38.766666667000038,
                            0
                        ],
                        [
                            -72.269999999999982,
                            39.096666667000079,
                            0
                        ],
                        [
                            -72.499999999999943,
                            39.337222222000037,
                            0
                        ],
                        [
                            -72.883611110999936,
                            39.733333333000076,
                            0
                        ],
                        [
                            -73.149999999999977,
                            39.733333333000076,
                            0
                        ],
                        [
                            -73.166666666999959,
                            39.683333333000064,
                            0
                        ],
                        [
                            -73.658333332999973,
                            39.034722222000028,
                            0
                        ]
                    ]
                ]
            },
            "properties": {
                "OBJECTID": 19,
                "Position": "N86",
                "Low": 8000,
                "High": 60000,
                "Notes": null,
                "Fill": "#1C008F",
                "Stroke": "#1C008F",
                "Sector": "Atlantic"
            }
        },
        {
            "type": "Feature",
            "id": 20,
            "geometry": {
                "type": "Polygon",
                "coordinates": [
                    [
                        [
                            -73.861111110999957,
                            38.737500000000068,
                            0
                        ],
                        [
                            -73.983333332999962,
                            38.541666667000072,
                            0
                        ],
                        [
                            -73.008333332999939,
                            37.950000000000045,
                            0
                        ],
                        [
                            -72.666666666999959,
                            37.227500000000077,
                            0
                        ],
                        [
                            -72.666111110999964,
                            36.702500000000043,
                            0
                        ],
                        [
                            -72.476666666999961,
                            36.725277778000077,
                            0
                        ],
                        [
                            -72.126111110999943,
                            36.808888889000059,
                            0
                        ],
                        [
                            -72.05611111099995,
                            36.82666666700004,
                            0
                        ],
                        [
                            -71.64749999999998,
                            36.953611111000043,
                            0
                        ],
                        [
                            -71.251111110999943,
                            37.108333333000076,
                            0
                        ],
                        [
                            -70.873888888999943,
                            37.288888889000077,
                            0
                        ],
                        [
                            -70.515555555999981,
                            37.495277778000059,
                            0
                        ],
                        [
                            -70.176388888999952,
                            37.721666667000079,
                            0
                        ],
                        [
                            -69.863611110999955,
                            37.972222222000028,
                            0
                        ],
                        [
                            -69.644444443999987,
                            38.179722222000066,
                            0
                        ],
                        [
                            -70.749547432999975,
                            39.071879210000077,
                            0
                        ],
                        [
                            -70.817994746999943,
                            38.99480813200006,
                            0
                        ],
                        [
                            -70.912567349999961,
                            38.888181959000065,
                            0
                        ],
                        [
                            -70.990848107999966,
                            38.799802825000029,
                            0
                        ],
                        [
                            -71.043566572999964,
                            38.740221729000041,
                            0
                        ],
                        [
                            -71.569444443999942,
                            39.199444444000051,
                            0
                        ],
                        [
                            -72.193055555999933,
                            39.649166667000031,
                            0
                        ],
                        [
                            -72.499444443999948,
                            39.73294220300005,
                            0
                        ],
                        [
                            -72.499444443999948,
                            39.56666666700005,
                            0
                        ],
                        [
                            -72.732777777999956,
                            39.733333333000076,
                            0
                        ],
                        [
                            -72.86527777799995,
                            39.85222222200008,
                            0
                        ],
                        [
                            -72.883611110999936,
                            39.733333333000076,
                            0
                        ],
                        [
                            -72.499999999999943,
                            39.337222222000037,
                            0
                        ],
                        [
                            -72.269999999999982,
                            39.096666667000079,
                            0
                        ],
                        [
                            -72.499999999999943,
                            38.766666667000038,
                            0
                        ],
                        [
                            -72.799999999999955,
                            38.333333333000041,
                            0
                        ],
                        [
                            -72.833888888999979,
                            38.28333333300003,
                            0
                        ],
                        [
                            -73.861111110999957,
                            38.737500000000068,
                            0
                        ]
                    ]
                ]
            },
            "properties": {
                "OBJECTID": 20,
                "Position": "N86",
                "Low": 5500,
                "High": 60000,
                "Notes": null,
                "Fill": "#1C008F",
                "Stroke": "#1C008F",
                "Sector": "Atlantic"
            }
        },
        {
            "type": "Feature",
            "id": 21,
            "geometry": {
                "type": "Polygon",
                "coordinates": [
                    [
                        [
                            -73.983333332999962,
                            38.541666667000072,
                            0
                        ],
                        [
                            -74.599722221999968,
                            37.081666667000036,
                            0
                        ],
                        [
                            -72.666666666999959,
                            37.227500000000077,
                            0
                        ],
                        [
                            -73.008333332999939,
                            37.950000000000045,
                            0
                        ],
                        [
                            -73.983333332999962,
                            38.541666667000072,
                            0
                        ]
                    ]
                ]
            },
            "properties": {
                "OBJECTID": 21,
                "Position": "N86",
                "Low": 24000,
                "High": 60000,
                "Notes": null,
                "Fill": "#1C008F",
                "Stroke": "#1C008F",
                "Sector": "Atlantic"
            }
        },
        {
            "type": "Feature",
            "id": 22,
            "geometry": {
                "type": "Polygon",
                "coordinates": [
                    [
                        [
                            -76.999999999999943,
                            31.666666667000072,
                            0
                        ],
                        [
                            -76.999999999999943,
                            31.583333333000041,
                            0
                        ],
                        [
                            -74.267222221999987,
                            33.357500000000073,
                            0
                        ],
                        [
                            -74.68111111099995,
                            33.729166667000072,
                            0
                        ],
                        [
                            -76.302222221999955,
                            32.575833333000048,
                            0
                        ],
                        [
                            -76.816666666999936,
                            32.200000000000045,
                            0
                        ],
                        [
                            -76.999999999999943,
                            32.262222222000048,
                            0
                        ],
                        [
                            -76.999999999999943,
                            32.000000000000057,
                            0
                        ],
                        [
                            -76.999999999999943,
                            31.666666667000072,
                            0
                        ]
                    ]
                ]
            },
            "properties": {
                "OBJECTID": 22,
                "Position": "N82",
                "Low": 31000,
                "High": 60000,
                "Notes": null,
                "Fill": "#4100C2",
                "Stroke": "#4100C2",
                "Sector": "HANRI"
            }
        },
        {
            "type": "Feature",
            "id": 23,
            "geometry": {
                "type": "Polygon",
                "coordinates": [
                    [
                        [
                            -76.999999999999943,
                            32.262222222000048,
                            0
                        ],
                        [
                            -76.816666666999936,
                            32.200000000000045,
                            0
                        ],
                        [
                            -76.302222221999955,
                            32.575833333000048,
                            0
                        ],
                        [
                            -74.68111111099995,
                            33.729166667000072,
                            0
                        ],
                        [
                            -75.683888888999945,
                            34.600277778000077,
                            0
                        ],
                        [
                            -76.481111110999962,
                            33.41916666700007,
                            0
                        ],
                        [
                            -76.779444443999978,
                            32.967777778000027,
                            0
                        ],
                        [
                            -76.999999999999943,
                            32.262222222000048,
                            0
                        ]
                    ]
                ]
            },
            "properties": {
                "OBJECTID": 23,
                "Position": "N82",
                "Low": 24000,
                "High": 60000,
                "Notes": null,
                "Fill": "#4100C2",
                "Stroke": "#4100C2",
                "Sector": "HANRI"
            }
        }
    ]
}