{
    "hasZ": true,
    "type": "FeatureCollection",
    "features": [
        {
            "type": "Feature",
            "id": 1,
            "geometry": {
                "type": "Polygon",
                "coordinates": [
                    [
                        [
                            -75.179141389999984,
                            41.250020556000038,
                            0
                        ],
                        [
                            -74.987531665999938,
                            41.191466944000069,
                            0
                        ],
                        [
                            -74.941784354999982,
                            41.231439862000059,
                            0
                        ],
                        [
                            -75.160816943999976,
                            41.308628056000032,
                            0
                        ],
                        [
                            -75.179141389999984,
                            41.250020556000038,
                            0
                        ]
                    ]
                ]
            },
            "properties": {
                "OBJECTID": 1,
                "Shape_Length": 0.55474827120251446,
                "Shape_Area": 0.012294626718197123,
                "Position": "WB",
                "Low": 6000,
                "High": 10000,
                "Notes": null,
                "Fill": "#8400A8",
                "Stroke": "#8400A8",
                "Sector": "Wilkes-Barre North"
            }
        },
        {
            "type": "Feature",
            "id": 2,
            "geometry": {
                "type": "Polygon",
                "coordinates": [
                    [
                        [
                            -74.987531665999938,
                            41.191466944000069,
                            0
                        ],
                        [
                            -74.922545555999989,
                            41.149471111000025,
                            0
                        ],
                        [
                            -74.782855555999959,
                            41.261851111000055,
                            0
                        ],
                        [
                            -74.85136111099996,
                            41.302803056000073,
                            0
                        ],
                        [
                            -74.941784354999982,
                            41.231439862000059,
                            0
                        ],
                        [
                            -74.987531665999938,
                            41.191466944000069,
                            0
                        ]
                    ]
                ]
            },
            "properties": {
                "OBJECTID": 2,
                "Shape_Length": 0.51241307044538831,
                "Shape_Area": 0.013361467432247141,
                "Position": "WB",
                "Low": 8000,
                "High": 10000,
                "Notes": null,
                "Fill": "#8400A8",
                "Stroke": "#8400A8",
                "Sector": "Wilkes-Barre North"
            }
        },
        {
            "type": "Feature",
            "id": 3,
            "geometry": {
                "type": "Polygon",
                "coordinates": [
                    [
                        [
                            -74.525236666999945,
                            41.47346222200008,
                            0
                        ],
                        [
                            -74.816708809999966,
                            41.601812880000068,
                            0
                        ],
                        [
                            -74.850081110999952,
                            41.616492222000034,
                            0
                        ],
                        [
                            -74.83578777699995,
                            41.596153611000034,
                            0
                        ],
                        [
                            -74.784205000999975,
                            41.52253694400008,
                            0
                        ],
                        [
                            -74.85136111099996,
                            41.302803056000073,
                            0
                        ],
                        [
                            -74.782855555999959,
                            41.261851111000055,
                            0
                        ],
                        [
                            -74.525236666999945,
                            41.47346222200008,
                            0
                        ]
                    ]
                ]
            },
            "properties": {
                "OBJECTID": 3,
                "Shape_Length": 1.1126540444158151,
                "Shape_Area": 0.053173269730637594,
                "Position": "WB",
                "Low": 9000,
                "High": 10000,
                "Notes": null,
                "Fill": "#8400A8",
                "Stroke": "#8400A8",
                "Sector": "Wilkes-Barre North"
            }
        },
        {
            "type": "Feature",
            "id": 4,
            "geometry": {
                "type": "Polygon",
                "coordinates": [
                    [
                        [
                            -74.850081110999952,
                            41.616492222000034,
                            0
                        ],
                        [
                            -75.057669166999972,
                            41.869756944000073,
                            0
                        ],
                        [
                            -75.113206110999954,
                            41.819983611000055,
                            0
                        ],
                        [
                            -74.912813558999972,
                            41.56832182800008,
                            0
                        ],
                        [
                            -74.784205000999975,
                            41.52253694400008,
                            0
                        ],
                        [
                            -74.850081110999952,
                            41.616492222000034,
                            0
                        ]
                    ]
                ]
            },
            "properties": {
                "OBJECTID": 4,
                "Shape_Length": 0.97500969194021536,
                "Shape_Area": 0.029452784393239437,
                "Position": "WB",
                "Low": 7000,
                "High": 10000,
                "Notes": null,
                "Fill": "#8400A8",
                "Stroke": "#8400A8",
                "Sector": "Wilkes-Barre North"
            }
        },
        {
            "type": "Feature",
            "id": 5,
            "geometry": {
                "type": "Polygon",
                "coordinates": [
                    [
                        [
                            -75.057669166999972,
                            41.869756944000073,
                            0
                        ],
                        [
                            -75.616737777999958,
                            42.103951111000072,
                            0
                        ],
                        [
                            -76.048691943999984,
                            42.085907778000035,
                            0
                        ],
                        [
                            -76.088106943999946,
                            41.692011667000031,
                            0
                        ],
                        [
                            -75.196445555999958,
                            41.731800278000037,
                            0
                        ],
                        [
                            -75.166676666999933,
                            41.772015833000069,
                            0
                        ],
                        [
                            -75.113206110999954,
                            41.819983611000055,
                            0
                        ],
                        [
                            -75.057669166999972,
                            41.869756944000073,
                            0
                        ]
                    ]
                ]
            },
            "properties": {
                "OBJECTID": 5,
                "Shape_Length": 2.5233268815485714,
                "Shape_Area": 0.31307019689719517,
                "Position": "WB",
                "Low": 9000,
                "High": 10000,
                "Notes": null,
                "Fill": "#8400A8",
                "Stroke": "#8400A8",
                "Sector": "Wilkes-Barre North"
            }
        },
        {
            "type": "Feature",
            "id": 6,
            "geometry": {
                "type": "Polygon",
                "coordinates": [
                    [
                        [
                            -75.113206110999954,
                            41.819983611000055,
                            0
                        ],
                        [
                            -75.166676666999933,
                            41.772015833000069,
                            0
                        ],
                        [
                            -75.196445555999958,
                            41.731800278000037,
                            0
                        ],
                        [
                            -76.088106943999946,
                            41.692011667000031,
                            0
                        ],
                        [
                            -76.11210194399996,
                            41.450187778000043,
                            0
                        ],
                        [
                            -75.993696778999947,
                            41.376636305000034,
                            0
                        ],
                        [
                            -75.691678888999945,
                            41.395643611000025,
                            0
                        ],
                        [
                            -75.534866832999967,
                            41.351829722000048,
                            0
                        ],
                        [
                            -75.41246042299997,
                            41.361651633000065,
                            0
                        ],
                        [
                            -75.179141389999984,
                            41.250020556000038,
                            0
                        ],
                        [
                            -75.160816943999976,
                            41.308628056000032,
                            0
                        ],
                        [
                            -74.941784354999982,
                            41.231439862000059,
                            0
                        ],
                        [
                            -74.85136111099996,
                            41.302803056000073,
                            0
                        ],
                        [
                            -74.784205000999975,
                            41.52253694400008,
                            0
                        ],
                        [
                            -74.912813558999972,
                            41.56832182800008,
                            0
                        ],
                        [
                            -75.113206110999954,
                            41.819983611000055,
                            0
                        ]
                    ]
                ]
            },
            "properties": {
                "OBJECTID": 6,
                "Shape_Length": 3.3405148339975015,
                "Shape_Area": 0.46734410234238249,
                "Position": "WB",
                "Low": 0,
                "High": 10000,
                "Notes": null,
                "Fill": "#8400A8",
                "Stroke": "#8400A8",
                "Sector": "Wilkes-Barre North"
            }
        },
        {
            "type": "Feature",
            "id": 7,
            "geometry": {
                "type": "Polygon",
                "coordinates": [
                    [
                        [
                            -76.155623332999937,
                            40.826361389000056,
                            0
                        ],
                        [
                            -75.73337749999996,
                            40.915275278000024,
                            0
                        ],
                        [
                            -75.465226388999952,
                            40.999985000000038,
                            0
                        ],
                        [
                            -75.366579166999941,
                            40.973599444000058,
                            0
                        ],
                        [
                            -75.278272221999941,
                            41.037554722000039,
                            0
                        ],
                        [
                            -75.359742777999941,
                            41.085934444000031,
                            0
                        ],
                        [
                            -75.38444416599998,
                            41.229580000000055,
                            0
                        ],
                        [
                            -75.179141389999984,
                            41.250020556000038,
                            0
                        ],
                        [
                            -75.41246042299997,
                            41.361651633000065,
                            0
                        ],
                        [
                            -75.534866832999967,
                            41.351829722000048,
                            0
                        ],
                        [
                            -75.691678888999945,
                            41.395643611000025,
                            0
                        ],
                        [
                            -75.993696778999947,
                            41.376636305000034,
                            0
                        ],
                        [
                            -76.11210194399996,
                            41.450187778000043,
                            0
                        ],
                        [
                            -76.088106943999946,
                            41.692011667000031,
                            0
                        ],
                        [
                            -76.411406666999937,
                            41.674566944000048,
                            0
                        ],
                        [
                            -76.432302499999935,
                            41.644242500000075,
                            0
                        ],
                        [
                            -76.299981110999965,
                            41.500977778000049,
                            0
                        ],
                        [
                            -76.301361984999971,
                            41.377894801000025,
                            0
                        ],
                        [
                            -76.331935277999946,
                            41.052333611000051,
                            0
                        ],
                        [
                            -76.333336666999969,
                            41.034573056000056,
                            0
                        ],
                        [
                            -76.689204166999957,
                            40.926460000000077,
                            0
                        ],
                        [
                            -76.371409283999981,
                            40.843090216000064,
                            0
                        ],
                        [
                            -76.338896666999972,
                            40.834499167000047,
                            0
                        ],
                        [
                            -76.155623332999937,
                            40.826361389000056,
                            0
                        ]
                    ]
                ]
            },
            "properties": {
                "OBJECTID": 7,
                "Shape_Length": 4.5410533029144169,
                "Shape_Area": 0.58407788463373944,
                "Position": "WE",
                "Low": 0,
                "High": 8000,
                "Notes": null,
                "Fill": "#E8BEFF",
                "Stroke": "#E8BEFF",
                "Sector": "Wilkes-Barre South"
            }
        },
        {
            "type": "Feature",
            "id": 8,
            "geometry": {
                "type": "Polygon",
                "coordinates": [
                    [
                        [
                            -76.689204166999957,
                            40.926460000000077,
                            0
                        ],
                        [
                            -76.333336666999969,
                            41.034573056000056,
                            0
                        ],
                        [
                            -76.331935277999946,
                            41.052333611000051,
                            0
                        ],
                        [
                            -76.466426110999976,
                            41.068447778000063,
                            0
                        ],
                        [
                            -76.718380277999984,
                            40.987611389000051,
                            0
                        ],
                        [
                            -76.689204166999957,
                            40.926460000000077,
                            0
                        ]
                    ]
                ]
            },
            "properties": {
                "OBJECTID": 8,
                "Shape_Length": 0.85755534125461352,
                "Shape_Area": 0.023310335965537096,
                "Position": "WE",
                "Low": 0,
                "High": 4000,
                "Notes": null,
                "Fill": "#E8BEFF",
                "Stroke": "#E8BEFF",
                "Sector": "Wilkes-Barre South"
            }
        },
        {
            "type": "Feature",
            "id": 9,
            "geometry": {
                "type": "Polygon",
                "coordinates": [
                    [
                        [
                            -75.179141389999984,
                            41.250020556000038,
                            0
                        ],
                        [
                            -75.38444416599998,
                            41.229580000000055,
                            0
                        ],
                        [
                            -75.359742777999941,
                            41.085934444000031,
                            0
                        ],
                        [
                            -75.278272221999941,
                            41.037554722000039,
                            0
                        ],
                        [
                            -75.179141389999984,
                            41.250020556000038,
                            0
                        ]
                    ]
                ]
            },
            "properties": {
                "OBJECTID": 9,
                "Shape_Length": 0.68127825758590554,
                "Shape_Area": 0.026050686616164723,
                "Position": "WE",
                "Low": 0,
                "High": 6000,
                "Notes": null,
                "Fill": "#E8BEFF",
                "Stroke": "#E8BEFF",
                "Sector": "Wilkes-Barre South"
            }
        }
    ]
}