{"hasZ":true,"type":"FeatureCollection","features":[{"type":"Feature","id":1,"geometry":{"type":"Polygon","coordinates":[[[-73.533458580999934,41.511773033000054,0],[-73.686214167999935,41.578190278000079,0],[-73.686746806999963,41.519792966000068,0],[-73.68689083299995,41.46749305600008,0],[-73.800523423999948,41.501927551000051,0],[-73.913272950999954,41.484223412000063,0],[-73.913323179999963,41.484215530000029,0],[-73.964079720999962,41.438416389000054,0],[-73.999549721999983,41.383738889000028,0],[-74.061535832999937,41.341598889000068,0],[-74.039806388999978,41.329131389000054,0],[-74.007990348999954,41.324501412000075,0],[-73.923234201999946,41.312113975000045,0],[-73.846241971999973,41.300982525000052,0],[-73.80074194499997,41.294205891000047,0],[-73.58378965299994,41.346122091000041,0],[-73.463567723999972,41.439814266000042,0],[-73.533458580999934,41.511773033000054,0]]]},"properties":{"OBJECTID":1,"Position":"N1X","Sector":"NOBBI","Low":0,"High":5000,"Notes":null,"Fill":"#FFFF00","Stroke":"#FFFF00"}},{"type":"Feature","id":2,"geometry":{"type":"Polygon","coordinates":[[[-73.686746806999963,41.519792966000068,0],[-73.686214167999935,41.578190278000079,0],[-73.87027722199997,41.522988056000031,0],[-73.800523423999948,41.501927551000051,0],[-73.686746806999963,41.519792966000068,0]]]},"properties":{"OBJECTID":2,"Position":"N1X","Sector":"NOBBI","Low":0,"High":5000,"Notes":"N1X releases 3000 and below to N5H when SWF ILS 27 or N69 approaches in use","Fill":"#FFFF00","Stroke":"#FFFF00"}},{"type":"Feature","id":3,"geometry":{"type":"Polygon","coordinates":[[[-73.30002944499995,41.562461389000077,0],[-73.300106943999936,41.587438056000053,0],[-73.51822999999996,41.60460194400008,0],[-73.598482623999985,41.561742662000029,0],[-73.686214167999935,41.578190278000079,0],[-73.533458580999934,41.511773033000054,0],[-73.463567723999972,41.439814266000042,0],[-73.385360277999951,41.359022778000053,0],[-73.298150832999966,41.466671667000071,0],[-73.30002944499995,41.562461389000077,0]]]},"properties":{"OBJECTID":3,"Position":"N1X","Sector":"NOBBI","Low":0,"High":3000,"Notes":null,"Fill":"#FFFF00","Stroke":"#FFFF00"}},{"type":"Feature","id":4,"geometry":{"type":"Polygon","coordinates":[[[-73.388219847999949,41.004843000000051,0],[-73.401759156999958,41.027740772000072,0],[-73.418828347999977,41.021519570000066,0],[-73.499185555999986,40.989938611000071,0],[-73.61330972199994,40.990329167000027,0],[-73.687479253999982,40.990606366000065,0],[-73.653148043999977,40.935064892000071,0],[-73.65278875499996,40.934483951000061,0],[-73.609521284999971,40.864486768000063,0],[-73.579401154999971,40.876106800000059,0],[-73.468364153999971,40.918926099000032,0],[-73.333515833999968,40.912020556000073,0],[-73.361304271999984,40.959193473000028,0],[-73.388219847999949,41.004843000000051,0]]]},"properties":{"OBJECTID":4,"Position":"N1X","Sector":"NOBBI","Low":0,"High":2000,"Notes":null,"Fill":"#FFFF00","Stroke":"#FFFF00"}},{"type":"Feature","id":5,"geometry":{"type":"Polygon","coordinates":[[[-73.653148043999977,40.935064892000071,0],[-73.687479253999982,40.990606366000065,0],[-73.748016092999933,40.990678505000062,0],[-73.844303374999981,40.990438371000039,0],[-73.747067568999967,40.938304208000034,0],[-73.747067449999975,40.938304144000028,0],[-73.709232724999936,40.918007465000073,0],[-73.650093075999962,40.886269137000056,0],[-73.609521284999971,40.864486768000063,0],[-73.653148043999977,40.935064892000071,0]]]},"properties":{"OBJECTID":5,"Position":"N1X","Sector":"NOBBI","Low":0,"High":2000,"Notes":"NA when LGA Landing 22","Fill":"#FFFF00","Stroke":"#FFFF00"}},{"type":"Feature","id":6,"geometry":{"type":"Polygon","coordinates":[[[-74.094510108999941,41.287493957000038,0],[-74.140985581999985,41.285563069000034,0],[-74.26045583299998,41.201300833000062,0],[-74.199606388999939,41.174078611000027,0],[-74.171024720999981,41.161316389000035,0],[-74.094510108999941,41.287493957000038,0]]]},"properties":{"OBJECTID":6,"Position":"N1Y","Sector":"NYACK","Low":6000,"High":7000,"Notes":null,"Fill":"#A8A800","Stroke":"#A8A800"}},{"type":"Feature","id":7,"geometry":{"type":"Polygon","coordinates":[[[-74.094510108999941,41.287493957000038,0],[-74.07515600499994,41.319172150000043,0],[-74.061535832999937,41.341598889000068,0],[-74.090567917999977,41.321122591000062,0],[-74.140985581999985,41.285563069000034,0],[-74.094510108999941,41.287493957000038,0]]]},"properties":{"OBJECTID":7,"Position":"N1Y","Sector":"NYACK","Low":4000,"High":7000,"Notes":null,"Fill":"#A8A800","Stroke":"#A8A800"}},{"type":"Feature","id":8,"geometry":{"type":"Polygon","coordinates":[[[-73.385360277999951,41.359022778000053,0],[-73.463567723999972,41.439814266000042,0],[-73.58378965299994,41.346122091000041,0],[-73.80074194499997,41.294205891000047,0],[-73.846241971999973,41.300982525000052,0],[-73.923234201999946,41.312113975000045,0],[-73.889583916999982,41.265898548000052,0],[-73.811693898999977,41.158948871000064,0],[-73.755662077999943,41.184788776000062,0],[-73.674415277999969,41.080162500000029,0],[-73.62884472199994,41.135636389000069,0],[-73.594112271999961,41.177618530000075,0],[-73.425111025999968,41.085071523000067,0],[-73.436120833999951,41.23668888900005,0],[-73.385360277999951,41.359022778000053,0]]]},"properties":{"OBJECTID":8,"Position":"N1X","Sector":"NOBBI","Low":0,"High":4000,"Notes":null,"Fill":"#FFFF00","Stroke":"#FFFF00"}},{"type":"Feature","id":9,"geometry":{"type":"Polygon","coordinates":[[[-73.674415277999969,41.080162500000029,0],[-73.755662077999943,41.184788776000062,0],[-73.811693898999977,41.158948871000064,0],[-73.730823300999987,41.053961882000067,0],[-73.674415277999969,41.080162500000029,0]]]},"properties":{"OBJECTID":9,"Position":"N1X","Sector":"NOBBI","Low":0,"High":3000,"Notes":null,"Fill":"#FFFF00","Stroke":"#FFFF00"}},{"type":"Feature","id":10,"geometry":{"type":"Polygon","coordinates":[[[-73.811693898999977,41.158948871000064,0],[-73.889583916999982,41.265898548000052,0],[-73.923234201999946,41.312113975000045,0],[-74.007990348999954,41.324501412000075,0],[-74.039806388999978,41.329131389000054,0],[-74.061535832999937,41.341598889000068,0],[-74.07515600499994,41.319172150000043,0],[-74.094510108999941,41.287493957000038,0],[-74.171024720999981,41.161316389000035,0],[-74.142615590999981,41.146598891000053,0],[-74.114632295999968,41.132117118000053,0],[-73.991684938999981,41.068271636000077,0],[-73.978728261999947,41.06152856600005,0],[-73.878901672999973,41.008626897000056,0],[-73.844303406999984,40.99043838800003,0],[-73.844303374999981,40.990438371000039,0],[-73.748016092999933,40.990678505000062,0],[-73.674415277999969,41.080162500000029,0],[-73.730823300999987,41.053961882000067,0],[-73.811693898999977,41.158948871000064,0]]]},"properties":{"OBJECTID":10,"Position":"N1Y","Sector":"NYACK","Low":0,"High":11000,"Notes":null,"Fill":"#A8A800","Stroke":"#A8A800"}},{"type":"Feature","id":11,"geometry":{"type":"Polygon","coordinates":[[[-73.674415277999969,41.080162500000029,0],[-73.755662077999943,41.184788776000062,0],[-73.811693898999977,41.158948871000064,0],[-73.730823300999987,41.053961882000067,0],[-73.674415277999969,41.080162500000029,0]]]},"properties":{"OBJECTID":11,"Position":"N1Y","Sector":"NYACK","Low":4000,"High":11000,"Notes":null,"Fill":"#A8A800","Stroke":"#A8A800"}},{"type":"Feature","id":12,"geometry":{"type":"Polygon","coordinates":[[[-73.755662077999943,41.184788776000062,0],[-73.832957481999983,41.283941190000064,0],[-73.846241971999973,41.300982525000052,0],[-73.923234201999946,41.312113975000045,0],[-73.889583916999982,41.265898548000052,0],[-73.811693898999977,41.158948871000064,0],[-73.755662077999943,41.184788776000062,0]]]},"properties":{"OBJECTID":12,"Position":"N1Y","Sector":"NYACK","Low":5000,"High":11000,"Notes":null,"Fill":"#A8A800","Stroke":"#A8A800"}},{"type":"Feature","id":13,"geometry":{"type":"Polygon","coordinates":[[[-73.58378965299994,41.346122091000041,0],[-73.80074194499997,41.294205891000047,0],[-73.846241971999973,41.300982525000052,0],[-73.832957481999983,41.283941190000064,0],[-73.755662077999943,41.184788776000062,0],[-73.576448888999948,41.25335194400003,0],[-73.535480376999942,41.248488655000074,0],[-73.525546666999958,41.247309444000052,0],[-73.58378965299994,41.346122091000041,0]]]},"properties":{"OBJECTID":13,"Position":"N1Y","Sector":"NYACK","Low":5000,"High":7000,"Notes":null,"Fill":"#A8A800","Stroke":"#A8A800"}},{"type":"Feature","id":14,"geometry":{"type":"Polygon","coordinates":[[[-73.58378965299994,41.346122091000041,0],[-73.80074194499997,41.294205891000047,0],[-73.846241971999973,41.300982525000052,0],[-73.832957481999983,41.283941190000064,0],[-73.755662077999943,41.184788776000062,0],[-73.576448888999948,41.25335194400003,0],[-73.535480376999942,41.248488655000074,0],[-73.525546666999958,41.247309444000052,0],[-73.58378965299994,41.346122091000041,0]]]},"properties":{"OBJECTID":14,"Position":"N1Y","Sector":"NYACK","Low":9000,"High":11000,"Notes":null,"Fill":"#A8A800","Stroke":"#A8A800"}},{"type":"Feature","id":15,"geometry":{"type":"Polygon","coordinates":[[[-73.62884472199994,41.135636389000069,0],[-73.594112271999961,41.177618530000075,0],[-73.535480376999942,41.248488655000074,0],[-73.576448888999948,41.25335194400003,0],[-73.755662077999943,41.184788776000062,0],[-73.674415277999969,41.080162500000029,0],[-73.62884472199994,41.135636389000069,0]]]},"properties":{"OBJECTID":15,"Position":"N1Y","Sector":"NYACK","Low":5000,"High":5000,"Notes":null,"Fill":"#A8A800","Stroke":"#A8A800"}},{"type":"Feature","id":16,"geometry":{"type":"Polygon","coordinates":[[[-73.62884472199994,41.135636389000069,0],[-73.594112271999961,41.177618530000075,0],[-73.535480376999942,41.248488655000074,0],[-73.576448888999948,41.25335194400003,0],[-73.755662077999943,41.184788776000062,0],[-73.674415277999969,41.080162500000029,0],[-73.62884472199994,41.135636389000069,0]]]},"properties":{"OBJECTID":16,"Position":"N1Y","Sector":"NYACK","Low":9000,"High":11000,"Notes":null,"Fill":"#A8A800","Stroke":"#A8A800"}},{"type":"Feature","id":17,"geometry":{"type":"Polygon","coordinates":[[[-73.385360277999951,41.359022778000053,0],[-73.463567723999972,41.439814266000042,0],[-73.58378965299994,41.346122091000041,0],[-73.525546666999958,41.247309444000052,0],[-73.436120833999951,41.23668888900005,0],[-73.385360277999951,41.359022778000053,0]]]},"properties":{"OBJECTID":17,"Position":"N1Y","Sector":"NYACK","Low":5000,"High":11000,"Notes":null,"Fill":"#A8A800","Stroke":"#A8A800"}},{"type":"Feature","id":18,"geometry":{"type":"Polygon","coordinates":[[[-73.674415277999969,41.080162500000029,0],[-73.748016092999933,40.990678505000062,0],[-73.687479253999982,40.990606366000065,0],[-73.61330972199994,40.990329167000027,0],[-73.674415277999969,41.080162500000029,0]]]},"properties":{"OBJECTID":18,"Position":"N1Y","Sector":"NYACK","Low":0,"High":3000,"Notes":null,"Fill":"#A8A800","Stroke":"#A8A800"}},{"type":"Feature","id":19,"geometry":{"type":"Polygon","coordinates":[[[-73.418828347999977,41.021519570000066,0],[-73.401759156999958,41.027740772000072,0],[-73.423631818999979,41.064697202000048,0],[-73.425111025999968,41.085071523000067,0],[-73.594112271999961,41.177618530000075,0],[-73.62884472199994,41.135636389000069,0],[-73.674415277999969,41.080162500000029,0],[-73.61330972199994,40.990329167000027,0],[-73.499185555999986,40.989938611000071,0],[-73.418828347999977,41.021519570000066,0]]]},"properties":{"OBJECTID":19,"Position":"N1X","Sector":"NOBBI","Low":0,"High":3000,"Notes":"N1X releases 3000 and below to N5H when SWF ILS 27","Fill":"#FFFF00","Stroke":"#FFFF00"}},{"type":"Feature","id":20,"geometry":{"type":"Polygon","coordinates":[[[-73.800523423999948,41.501927551000051,0],[-73.87027722199997,41.522988056000031,0],[-73.913323179999963,41.484215530000029,0],[-73.800523423999948,41.501927551000051,0]]]},"properties":{"OBJECTID":20,"Position":"N1X","Sector":"NOBBI","Low":4000,"High":5000,"Notes":null,"Fill":"#FFFF00","Stroke":"#FFFF00"}},{"type":"Feature","id":22,"geometry":{"type":"Polygon","coordinates":[[[-73.800523423999948,41.501927551000051,0],[-73.68689083299995,41.46749305600008,0],[-73.686746806999963,41.519792966000068,0],[-73.800523423999948,41.501927551000051,0]]]},"properties":{"OBJECTID":22,"Position":"N1X","Sector":"NOBBI","Low":0,"High":5000,"Notes":"N1X releases 3000 and below to N5H when N69 approaches in use","Fill":"#FFFF00","Stroke":"#FFFF00"}}]}