{
    "hasZ": true,
    "type": "FeatureCollection",
    "features": [
        {
            "type": "Feature",
            "id": 149,
            "geometry": {
                "type": "Polygon",
                "coordinates": [
                    [
                        [
                            -73.716678888999979,
                            40.033355278000045,
                            0
                        ],
                        [
                            -73.798603888999935,
                            40.063929167000026,
                            0
                        ],
                        [
                            -73.895819166999956,
                            40.137531944000045,
                            0
                        ],
                        [
                            -73.999918610999941,
                            40.154205833000049,
                            0
                        ],
                        [
                            -74.33410454999995,
                            40.250297313000033,
                            0
                        ],
                        [
                            -74.365773333999982,
                            40.221446111000034,
                            0
                        ],
                        [
                            -74.365575277999937,
                            40.162489444000073,
                            0
                        ],
                        [
                            -74.404546110999945,
                            40.098959444000059,
                            0
                        ],
                        [
                            -74.312689443999943,
                            40.070644444000038,
                            0
                        ],
                        [
                            -74.135297778999984,
                            40.015869167000062,
                            0
                        ],
                        [
                            -74.321901899999943,
                            39.747649200000069,
                            0
                        ],
                        [
                            -74.293108299999972,
                            39.723198100000047,
                            0
                        ],
                        [
                            -74.172230599999978,
                            39.716623100000049,
                            0
                        ],
                        [
                            -74.060841899999957,
                            39.66412310000004,
                            0
                        ],
                        [
                            -73.762508599999933,
                            39.899955800000043,
                            0
                        ],
                        [
                            -73.716678888999979,
                            40.033355278000045,
                            0
                        ]
                    ]
                ]
            },
            "properties": {
                "OBJECTID": 149,
                "Position": "MY",
                "Low": 0,
                "High": 6000,
                "Notes": null,
                "Fill": "#00308F",
                "Stroke": "#00308F",
                "Sector": "WRI RAPCON"
            }
        },
        {
            "type": "Feature",
            "id": 150,
            "geometry": {
                "type": "Polygon",
                "coordinates": [
                    [
                        [
                            -74.060841899999957,
                            39.66412310000004,
                            0
                        ],
                        [
                            -73.933341900999949,
                            39.574955800000055,
                            0
                        ],
                        [
                            -73.81413219999996,
                            39.642850000000067,
                            0
                        ],
                        [
                            -73.682759199999964,
                            39.733257500000036,
                            0
                        ],
                        [
                            -73.762508599999933,
                            39.899955800000043,
                            0
                        ],
                        [
                            -74.060841899999957,
                            39.66412310000004,
                            0
                        ]
                    ]
                ]
            },
            "properties": {
                "OBJECTID": 150,
                "Position": "MY",
                "Low": 0,
                "High": 5000,
                "Notes": null,
                "Fill": "#00308F",
                "Stroke": "#00308F",
                "Sector": "WRI RAPCON"
            }
        },
        {
            "type": "Feature",
            "id": 151,
            "geometry": {
                "type": "Polygon",
                "coordinates": [
                    [
                        [
                            -74.02222722099998,
                            40.191659444000038,
                            0
                        ],
                        [
                            -73.998300793999988,
                            40.232535553000048,
                            0
                        ],
                        [
                            -73.97505027699998,
                            40.272203889000025,
                            0
                        ],
                        [
                            -73.994335277999937,
                            40.32096277800008,
                            0
                        ],
                        [
                            -74.058575387999952,
                            40.354036922000034,
                            0
                        ],
                        [
                            -74.115517653999973,
                            40.383353757000066,
                            0
                        ],
                        [
                            -74.130068227999971,
                            40.407484201000045,
                            0
                        ],
                        [
                            -74.148068359999968,
                            40.400112550000074,
                            0
                        ],
                        [
                            -74.187343055999975,
                            40.384001389000048,
                            0
                        ],
                        [
                            -74.268299275999937,
                            40.310247870000069,
                            0
                        ],
                        [
                            -74.33410454999995,
                            40.250297313000033,
                            0
                        ],
                        [
                            -73.999918610999941,
                            40.154205833000049,
                            0
                        ],
                        [
                            -74.02222722099998,
                            40.191659444000038,
                            0
                        ]
                    ]
                ]
            },
            "properties": {
                "OBJECTID": 151,
                "Position": "MY",
                "Low": 0,
                "High": 2000,
                "Notes": null,
                "Fill": "#00308F",
                "Stroke": "#00308F",
                "Sector": "WRI RAPCON"
            }
        },
        {
            "type": "Feature",
            "id": 152,
            "geometry": {
                "type": "Polygon",
                "coordinates": [
                    [
                        [
                            -74.33410454999995,
                            40.250297313000033,
                            0
                        ],
                        [
                            -74.268299275999937,
                            40.310247870000069,
                            0
                        ],
                        [
                            -74.187343055999975,
                            40.384001389000048,
                            0
                        ],
                        [
                            -74.148068359999968,
                            40.400112550000074,
                            0
                        ],
                        [
                            -74.130068227999971,
                            40.407484201000045,
                            0
                        ],
                        [
                            -74.170522295999945,
                            40.475547498000026,
                            0
                        ],
                        [
                            -74.17054571999995,
                            40.475534573000061,
                            0
                        ],
                        [
                            -74.285437267999953,
                            40.412142274000075,
                            0
                        ],
                        [
                            -74.408535238999946,
                            40.344222020000075,
                            0
                        ],
                        [
                            -74.433301580999967,
                            40.330556784000066,
                            0
                        ],
                        [
                            -74.433301617999973,
                            40.330556757000068,
                            0
                        ],
                        [
                            -74.477198748999967,
                            40.293548368000074,
                            0
                        ],
                        [
                            -74.431132008999953,
                            40.275681760000055,
                            0
                        ],
                        [
                            -74.429959370999939,
                            40.275226962000033,
                            0
                        ],
                        [
                            -74.397196110999971,
                            40.262520000000052,
                            0
                        ],
                        [
                            -74.388388031999966,
                            40.251006630000063,
                            0
                        ],
                        [
                            -74.365773333999982,
                            40.221446111000034,
                            0
                        ],
                        [
                            -74.33410454999995,
                            40.250297313000033,
                            0
                        ]
                    ]
                ]
            },
            "properties": {
                "OBJECTID": 152,
                "Position": "MY",
                "Low": 0,
                "High": 2000,
                "Notes": null,
                "Fill": "#00308F",
                "Stroke": "#00308F",
                "Sector": "WRI RAPCON"
            }
        },
        {
            "type": "Feature",
            "id": 153,
            "geometry": {
                "type": "Polygon",
                "coordinates": [
                    [
                        [
                            -74.703168850999987,
                            40.140409780000027,
                            0
                        ],
                        [
                            -74.617102754999962,
                            40.217511932000036,
                            0
                        ],
                        [
                            -74.617052210999987,
                            40.217557154000076,
                            0
                        ],
                        [
                            -74.592532732999985,
                            40.239535525000065,
                            0
                        ],
                        [
                            -74.592534011999987,
                            40.239536700000031,
                            0
                        ],
                        [
                            -74.619540288999985,
                            40.264333918000034,
                            0
                        ],
                        [
                            -74.641798191999953,
                            40.284665799000038,
                            0
                        ],
                        [
                            -74.692984577999937,
                            40.263316477000046,
                            0
                        ],
                        [
                            -74.709915186999979,
                            40.24578490600004,
                            0
                        ],
                        [
                            -74.724295603999963,
                            40.230844554000043,
                            0
                        ],
                        [
                            -74.747232777999955,
                            40.206976389000033,
                            0
                        ],
                        [
                            -74.758353055999976,
                            40.138930000000073,
                            0
                        ],
                        [
                            -74.724673055999972,
                            40.121145278000029,
                            0
                        ],
                        [
                            -74.703168850999987,
                            40.140409780000027,
                            0
                        ]
                    ]
                ]
            },
            "properties": {
                "OBJECTID": 153,
                "Position": "MY",
                "Low": 0,
                "High": 3000,
                "Notes": null,
                "Fill": "#00308F",
                "Stroke": "#00308F",
                "Sector": "WRI RAPCON"
            }
        },
        {
            "type": "Feature",
            "id": 154,
            "geometry": {
                "type": "Polygon",
                "coordinates": [
                    [
                        [
                            -74.365773333999982,
                            40.221446111000034,
                            0
                        ],
                        [
                            -74.388388031999966,
                            40.251006630000063,
                            0
                        ],
                        [
                            -74.397196110999971,
                            40.262520000000052,
                            0
                        ],
                        [
                            -74.429959370999939,
                            40.275226962000033,
                            0
                        ],
                        [
                            -74.431132008999953,
                            40.275681760000055,
                            0
                        ],
                        [
                            -74.477198748999967,
                            40.293548368000074,
                            0
                        ],
                        [
                            -74.592440815999964,
                            40.239620246000072,
                            0
                        ],
                        [
                            -74.617052210999987,
                            40.217557154000076,
                            0
                        ],
                        [
                            -74.617102754999962,
                            40.217511932000036,
                            0
                        ],
                        [
                            -74.494985746999987,
                            40.202393469000071,
                            0
                        ],
                        [
                            -74.415334169999937,
                            40.177504333000059,
                            0
                        ],
                        [
                            -74.365773333999982,
                            40.221446111000034,
                            0
                        ]
                    ]
                ]
            },
            "properties": {
                "OBJECTID": 154,
                "Position": "MY",
                "Low": 0,
                "High": 5000,
                "Notes": "6000 released by ARD by LOA",
                "Fill": "#00308F",
                "Stroke": "#00308F",
                "Sector": "WRI RAPCON"
            }
        },
        {
            "type": "Feature",
            "id": 155,
            "geometry": {
                "type": "Polygon",
                "coordinates": [
                    [
                        [
                            -74.499423610999941,
                            40.039710556000045,
                            0
                        ],
                        [
                            -74.404546110999945,
                            40.098959444000059,
                            0
                        ],
                        [
                            -74.365575277999937,
                            40.162489444000073,
                            0
                        ],
                        [
                            -74.365773333999982,
                            40.221446111000034,
                            0
                        ],
                        [
                            -74.415334169999937,
                            40.177504333000059,
                            0
                        ],
                        [
                            -74.452690832999963,
                            40.144383056000038,
                            0
                        ],
                        [
                            -74.482479443999978,
                            40.123648333000062,
                            0
                        ],
                        [
                            -74.631343332999961,
                            40.020300278000036,
                            0
                        ],
                        [
                            -74.583573055999977,
                            40.017266111000026,
                            0
                        ],
                        [
                            -74.499423610999941,
                            40.039710556000045,
                            0
                        ]
                    ]
                ]
            },
            "properties": {
                "OBJECTID": 155,
                "Position": "MY",
                "Low": 0,
                "High": 7000,
                "Notes": null,
                "Fill": "#00308F",
                "Stroke": "#00308F",
                "Sector": "WRI RAPCON"
            }
        },
        {
            "type": "Feature",
            "id": 156,
            "geometry": {
                "type": "Polygon",
                "coordinates": [
                    [
                        [
                            -74.54920999899997,
                            40.077791667000042,
                            0
                        ],
                        [
                            -74.482479443999978,
                            40.123648333000062,
                            0
                        ],
                        [
                            -74.452690832999963,
                            40.144383056000038,
                            0
                        ],
                        [
                            -74.415334169999937,
                            40.177504333000059,
                            0
                        ],
                        [
                            -74.494985746999987,
                            40.202393469000071,
                            0
                        ],
                        [
                            -74.617102754999962,
                            40.217511932000036,
                            0
                        ],
                        [
                            -74.703168850999987,
                            40.140409780000027,
                            0
                        ],
                        [
                            -74.724673055999972,
                            40.121145278000029,
                            0
                        ],
                        [
                            -74.631343332999961,
                            40.020300278000036,
                            0
                        ],
                        [
                            -74.54920999899997,
                            40.077791667000042,
                            0
                        ]
                    ]
                ]
            },
            "properties": {
                "OBJECTID": 156,
                "Position": "MY",
                "Low": 0,
                "High": 6000,
                "Notes": null,
                "Fill": "#00308F",
                "Stroke": "#00308F",
                "Sector": "WRI RAPCON"
            }
        },
        {
            "type": "Feature",
            "id": 157,
            "geometry": {
                "type": "Polygon",
                "coordinates": [
                    [
                        [
                            -74.724673055999972,
                            40.121145278000029,
                            0
                        ],
                        [
                            -74.763834199999962,
                            40.085881100000051,
                            0
                        ],
                        [
                            -74.743356699999936,
                            39.942841900000076,
                            0
                        ],
                        [
                            -74.690022838999937,
                            39.979739705000043,
                            0
                        ],
                        [
                            -74.663153401999978,
                            39.965824606000069,
                            0
                        ],
                        [
                            -74.613335799999959,
                            40.000018300000079,
                            0
                        ],
                        [
                            -74.631343332999961,
                            40.020300278000036,
                            0
                        ],
                        [
                            -74.724673055999972,
                            40.121145278000029,
                            0
                        ]
                    ]
                ]
            },
            "properties": {
                "OBJECTID": 157,
                "Position": "MY",
                "Low": 0,
                "High": 6000,
                "Notes": null,
                "Fill": "#00308F",
                "Stroke": "#00308F",
                "Sector": "WRI RAPCON"
            }
        },
        {
            "type": "Feature",
            "id": 158,
            "geometry": {
                "type": "Polygon",
                "coordinates": [
                    [
                        [
                            -74.763834199999962,
                            40.085881100000051,
                            0
                        ],
                        [
                            -74.820451699999978,
                            39.972988600000065,
                            0
                        ],
                        [
                            -74.822469699999942,
                            39.716382200000055,
                            0
                        ],
                        [
                            -74.775799999999947,
                            39.720470300000045,
                            0
                        ],
                        [
                            -74.691118299999971,
                            39.764216700000077,
                            0
                        ],
                        [
                            -74.735526899999968,
                            39.916049400000077,
                            0
                        ],
                        [
                            -74.663153401999978,
                            39.965824606000069,
                            0
                        ],
                        [
                            -74.690022838999937,
                            39.979739705000043,
                            0
                        ],
                        [
                            -74.743356699999936,
                            39.942841900000076,
                            0
                        ],
                        [
                            -74.763834199999962,
                            40.085881100000051,
                            0
                        ]
                    ]
                ]
            },
            "properties": {
                "OBJECTID": 158,
                "Position": "MY",
                "Low": 0,
                "High": 3000,
                "Notes": null,
                "Fill": "#00308F",
                "Stroke": "#00308F",
                "Sector": "WRI RAPCON"
            }
        },
        {
            "type": "Feature",
            "id": 159,
            "geometry": {
                "type": "Polygon",
                "coordinates": [
                    [
                        [
                            -74.775799999999947,
                            39.720470300000045,
                            0
                        ],
                        [
                            -74.725008899999978,
                            39.724956100000043,
                            0
                        ],
                        [
                            -74.500008599999944,
                            39.655511700000034,
                            0
                        ],
                        [
                            -74.409913899999935,
                            39.747005300000069,
                            0
                        ],
                        [
                            -74.394986699999947,
                            39.755405000000053,
                            0
                        ],
                        [
                            -74.332385599999952,
                            39.763519200000076,
                            0
                        ],
                        [
                            -74.321901899999943,
                            39.747649200000069,
                            0
                        ],
                        [
                            -74.135297778999984,
                            40.015869167000062,
                            0
                        ],
                        [
                            -74.404546110999945,
                            40.098959444000059,
                            0
                        ],
                        [
                            -74.499423610999941,
                            40.039710556000045,
                            0
                        ],
                        [
                            -74.583573055999977,
                            40.017266111000026,
                            0
                        ],
                        [
                            -74.631343332999961,
                            40.020300278000036,
                            0
                        ],
                        [
                            -74.613335799999959,
                            40.000018300000079,
                            0
                        ],
                        [
                            -74.663153401999978,
                            39.965824606000069,
                            0
                        ],
                        [
                            -74.735526899999968,
                            39.916049400000077,
                            0
                        ],
                        [
                            -74.691118299999971,
                            39.764216700000077,
                            0
                        ],
                        [
                            -74.775799999999947,
                            39.720470300000045,
                            0
                        ]
                    ]
                ]
            },
            "properties": {
                "OBJECTID": 159,
                "Position": "MY",
                "Low": 0,
                "High": 8000,
                "Notes": null,
                "Fill": "#00308F",
                "Stroke": "#00308F",
                "Sector": "WRI RAPCON"
            }
        },
        {
            "type": "Feature",
            "id": 160,
            "geometry": {
                "type": "Polygon",
                "coordinates": [
                    [
                        [
                            -74.822469699999942,
                            39.716382200000055,
                            0
                        ],
                        [
                            -74.821157998999979,
                            39.883176497000079,
                            0
                        ],
                        [
                            -74.820451699999978,
                            39.972988600000065,
                            0
                        ],
                        [
                            -74.763834199999962,
                            40.085881100000051,
                            0
                        ],
                        [
                            -74.896788099999981,
                            39.991825300000073,
                            0
                        ],
                        [
                            -74.927768649999962,
                            39.88371627500004,
                            0
                        ],
                        [
                            -74.927768663999984,
                            39.883716226000047,
                            0
                        ],
                        [
                            -74.947392499999978,
                            39.814996944000029,
                            0
                        ],
                        [
                            -74.954143899999963,
                            39.791677800000059,
                            0
                        ],
                        [
                            -74.940293963999977,
                            39.752533201000062,
                            0
                        ],
                        [
                            -74.911147199999959,
                            39.70973390000006,
                            0
                        ],
                        [
                            -74.822469699999942,
                            39.716382200000055,
                            0
                        ]
                    ]
                ]
            },
            "properties": {
                "OBJECTID": 160,
                "Position": "MY",
                "Low": 0,
                "High": 2000,
                "Notes": null,
                "Fill": "#00308F",
                "Stroke": "#00308F",
                "Sector": "WRI RAPCON"
            }
        },
        {
            "type": "Feature",
            "id": 161,
            "geometry": {
                "type": "Polygon",
                "coordinates": [
                    [
                        [
                            -74.911147199999959,
                            39.70973390000006,
                            0
                        ],
                        [
                            -74.800008299999945,
                            39.652734200000054,
                            0
                        ],
                        [
                            -74.500008599999944,
                            39.655511700000034,
                            0
                        ],
                        [
                            -74.725008899999978,
                            39.724956100000043,
                            0
                        ],
                        [
                            -74.775799999999947,
                            39.720470300000045,
                            0
                        ],
                        [
                            -74.822469699999942,
                            39.716382200000055,
                            0
                        ],
                        [
                            -74.911147199999959,
                            39.70973390000006,
                            0
                        ]
                    ]
                ]
            },
            "properties": {
                "OBJECTID": 161,
                "Position": "MY",
                "Low": 0,
                "High": 3000,
                "Notes": null,
                "Fill": "#00308F",
                "Stroke": "#00308F",
                "Sector": "WRI RAPCON"
            }
        }
    ]
}