{"hasZ":true,"type":"FeatureCollection","features":[{"type":"Feature","id":57,"geometry":{"type":"Polygon","coordinates":[[[-73.377812499999948,42.052753611000071,0],[-73.465834167999958,41.97523805600008,0],[-74.048293518999969,41.988421575000075,0],[-74.048401914999943,41.988424028000054,0],[-74.091044442999987,41.855042500000025,0],[-74.061535832999937,41.341598889000068,0],[-73.999549721999983,41.383738889000028,0],[-73.964079720999962,41.438416389000054,0],[-73.913272950999954,41.484223412000063,0],[-73.87027722199997,41.522988056000031,0],[-73.686214167999935,41.578190278000079,0],[-73.598482623999985,41.561742662000029,0],[-73.51822999999996,41.60460194400008,0],[-73.300106943999936,41.587438056000053,0],[-73.377812499999948,42.052753611000071,0]]]},"properties":{"OBJECTID":57,"Position":"N5H","Low":0,"High":5000,"Notes":null,"Fill":"#267300","Stroke":"#267300","Sector":"Catskill"}},{"type":"Feature","id":58,"geometry":{"type":"Polygon","coordinates":[[[-74.091044442999987,41.855042500000025,0],[-73.999175277999939,42.141666111000063,0],[-74.299263609999969,42.175031667000042,0],[-74.913680555999974,42.11379472200008,0],[-75.057669166999972,41.869756944000073,0],[-75.113206110999954,41.819983611000055,0],[-74.912813558999972,41.56832182800008,0],[-74.784205000999975,41.52253694400008,0],[-74.83578777699995,41.596153611000034,0],[-74.541656388999968,41.683344722000072,0],[-74.422226110999986,41.591781667000078,0],[-74.44713361099997,41.530046389000063,0],[-74.358290676999957,41.486742046000074,0],[-74.182693380999979,41.400869371000056,0],[-74.061535832999937,41.341598889000068,0],[-74.091044442999987,41.855042500000025,0]]]},"properties":{"OBJECTID":58,"Position":"N5H","Low":0,"High":6000,"Notes":null,"Fill":"#267300","Stroke":"#267300","Sector":"Catskill"}},{"type":"Feature","id":59,"geometry":{"type":"Polygon","coordinates":[[[-74.182741444999976,41.400833915000078,0],[-74.182741539999938,41.400833961000046,0],[-74.358290676999957,41.486742046000074,0],[-74.44713361099997,41.530046389000063,0],[-74.422226110999986,41.591781667000078,0],[-74.541656388999968,41.683344722000072,0],[-74.83578777699995,41.596153611000034,0],[-74.784205000999975,41.52253694400008,0],[-74.85136111099996,41.302803056000073,0],[-74.941784354999982,41.231439862000059,0],[-74.939153338999972,41.230559718000052,0],[-74.83860978599995,41.216997075000052,0],[-74.837063055999977,41.216788611000027,0],[-74.718238888999963,41.222965000000045,0],[-74.75549689099995,41.245386751000069,0],[-74.607670287999952,41.361112160000062,0],[-74.540251388999934,41.378037222000046,0],[-74.421171328999947,41.362965737000025,0],[-74.397489909999933,41.359968475000073,0],[-74.397452212999951,41.359963704000052,0],[-74.261667608999971,41.342777993000027,0],[-74.261646149999933,41.342775276000054,0],[-74.090567917999977,41.321122591000062,0],[-74.07515600499994,41.319172150000043,0],[-74.061535832999937,41.341598889000068,0],[-74.182741444999976,41.400833915000078,0]]]},"properties":{"OBJECTID":59,"Position":"N5H","Low":0,"High":5000,"Notes":null,"Fill":"#267300","Stroke":"#267300","Sector":"Catskill"}},{"type":"Feature","id":61,"geometry":{"type":"Polygon","coordinates":[[[-74.657434999999964,41.241845556000044,0],[-74.591181666999944,41.266480278000074,0],[-74.467524930999957,41.271721807000063,0],[-74.357341605999977,41.276392228000077,0],[-74.140985581999985,41.285563069000034,0],[-74.094510108999941,41.287493957000038,0],[-74.07515600499994,41.319172150000043,0],[-74.090567917999977,41.321122591000062,0],[-74.261646149999933,41.342775276000054,0],[-74.397489909999933,41.359968475000073,0],[-74.421171328999947,41.362965737000025,0],[-74.540251388999934,41.378037222000046,0],[-74.607670287999952,41.361112160000062,0],[-74.75549689099995,41.245386751000069,0],[-74.718238888999963,41.222965000000045,0],[-74.657434999999964,41.241845556000044,0]]]},"properties":{"OBJECTID":61,"Position":"N5H","Low":0,"High":4000,"Notes":null,"Fill":"#267300","Stroke":"#267300","Sector":"Catskill"}},{"type":"Feature","id":65,"geometry":{"type":"Polygon","coordinates":[[[-75.105218760999946,41.827148461000036,0],[-75.057669166999972,41.869756944000073,0],[-74.983127221999951,41.996307778000073,0],[-74.983876401654143,41.996742730096081,0],[-74.984629151665459,41.997171473493161,0],[-74.985385420581551,41.997593978885597,0],[-74.986145156709512,41.998010217394089,0],[-74.986908308119467,41.998420160567676,0],[-74.987674822648074,41.998823780385706,0],[-74.988444647902142,41.999221049259745,0],[-74.989217731262173,41.999611940035464,0],[-74.989994019885941,41.999996425994482,0],[-74.990773460712177,42.000374480856223,0],[-74.991556000464115,42.00074607877967,0],[-74.992341585653193,42.00111119436518,0],[-74.993130162582688,42.00146980265616,0],[-74.993921677351352,42.001821879140842,0],[-74.994716075857156,42.002167399753908,0],[-74.995513303800962,42.002506340878142,0],[-74.996313306690212,42.002838679346063,0],[-74.997116029842701,42.003164392441505,0],[-74.997921418390263,42.00348345790114,0],[-74.998729417282561,42.003795853916053,0],[-74.999539971290815,42.004101559133176,0],[-75.000353025011634,42.00440055265679,0],[-75.001168522870714,42.004692814049925,0],[-75.001986409126715,42.004978323335784,0],[-75.00280662787506,42.005257060999085,0],[-75.003629123051724,42.005529007987398,0],[-75.004453838437072,42.005794145712457,0],[-75.00528071765973,42.006052456051442,0],[-75.006109704200398,42.00630392134817,0],[-75.006940741395766,42.00654852441437,0],[-75.007773772442349,42.006786248530787,0],[-75.008608740400334,42.007017077448396,0],[-75.009445588197593,42.007240995389438,0],[-75.010284258633433,42.007457987048561,0],[-75.011124694382616,42.007668037593845,0],[-75.011966837999239,42.007871132667802,0],[-75.012810631920644,42.008067258388358,0],[-75.013656018471409,42.00825640134984,0],[-75.014502939867199,42.008438548623836,0],[-75.015351338218821,42.008613687760125,0],[-75.016201155536081,42.008781806787503,0],[-75.017052333731826,42.008942894214613,0],[-75.017904814625865,42.009096939030719,0],[-75.01875853994899,42.009243930706468,0],[-75.019613451346899,42.009383859194614,0],[-75.020469490384258,42.009516714930676,0],[-75.021326598548626,42.009642488833641,0],[-75.022184717254476,42.009761172306547,0],[-75.023043787847243,42.009872757237069,0],[-75.023903751607278,42.009977235998093,0],[-75.024764549753883,42.010074601448245,0],[-75.025626123449328,42.010164846932341,0],[-75.02648841380288,42.010247966281874,0],[-75.027351361874793,42.01032395381543,0],[-75.028214908680397,42.01039280433907,0],[-75.029078995194098,42.010454513146676,0],[-75.029943562353367,42.010509076020313,0],[-75.03080855106289,42.010556489230453,0],[-75.031673902198463,42.01059674953629,0],[-75.032539556611184,42.010629854185936,0],[-75.033405455131359,42.010655800916595,0],[-75.034271538572654,42.010674587954753,0],[-75.035137747736059,42.010686214016253,0],[-75.036004023414009,42.010690678306439,0],[-75.036870306394349,42.01068798052016,0],[-75.037736537464454,42.010678120841817,0],[-75.038602657415254,42.010661099945345,0],[-75.039468607045251,42.010636918994159,0],[-75.040334327164587,42.010605579641101,0],[-75.04119975859912,42.010567084028281,0],[-75.042064842194407,42.010521434786973,0],[-75.042929518819818,42.010468635037434,0],[-75.04379372937251,42.010408688388637,0],[-75.044657414781497,42.010341598938105,0],[-75.04552051601172,42.010267371271567,0],[-75.04638297406801,42.010186010462668,0],[-75.047244729999179,42.010097522072627,0],[-75.048105724902044,42.010001912149846,0],[-75.048965899925406,42.009899187229514,0],[-75.049825196274142,42.00978935433313,0],[-75.050683555213169,42.009672420968052,0],[-75.051540918071495,42.009548395126977,0],[-75.052397226246185,42.009417285287377,0],[-75.053252421206409,42.009279100410943,0],[-75.05410644449745,42.009133849942963,0],[-75.05495923774464,42.008981543811679,0],[-75.055810742657414,42.008822192427587,0],[-75.05666090103324,42.008655806682761,0],[-75.057509654761674,42.008482397950097,0],[-75.058356945828223,42.008301978082507,0],[-75.059202716318424,42.008114559412157,0],[-75.060046908421697,42.007920154749577,0],[-75.060889464435419,42.00771877738282,0],[-75.061730326768711,42.007510441076548,0],[-75.06256943794655,42.00729516007106,0],[-75.06340674061353,42.007072949081362,0],[-75.06424217753792,42.006843823296137,0],[-75.065075691615476,42.006607798376713,0],[-75.065907225873417,42.006364890455991,0],[-75.066736723474278,42.006115116137337,0],[-75.067564127719777,42.005858492493466,0],[-75.068389382054775,42.005595037065241,0],[-75.069212430071033,42.005324767860515,0],[-75.070033215511131,42.005047703352872,0],[-75.07085168227232,42.00476386248036,0],[-75.071667774410329,42.004473264644233,0],[-75.072481436143192,42.004175929707586,0],[-75.073292611855081,42.003871877994008,0],[-75.074101246100071,42.003561130286208,0],[-75.074907283605981,42.003243707824574,0],[-75.075710669278109,42.002919632305733,0],[-75.076511348202999,42.002588925881064,0],[-75.077309265652232,42.002251611155195,0],[-75.078104367086127,42.001907711184437,0],[-75.078896598157513,42.001557249475219,0],[-75.079685904715362,42.001200249982489,0],[-75.080472232808589,42.00083673710806,0],[-75.081255528689695,42.000466735698964,0],[-75.082035738818405,42.000090271045728,0],[-75.082812809865388,41.999707368880657,0],[-75.083586688715883,41.999318055376094,0],[-75.084357322473309,41.99892235714259,0],[-75.085124658462902,41.998520301227124,0],[-75.085888644235311,41.998111915111238,0],[-75.086649227570163,41.99769722670915,0],[-75.087406356479676,41.997276264365865,0],[-75.088159979212165,41.996849056855218,0],[-75.088910044255613,41.996415633377929,0],[-75.089656500341192,41.995976023559585,0],[-75.090399296446734,41.995530257448628,0],[-75.091138381800249,41.995078365514303,0],[-75.091873705883373,41.994620378644555,0],[-75.092605218434855,41.994156328143958,0],[-75.09333286945396,41.993686245731531,0],[-75.094056609203903,41.993210163538592,0],[-75.094776388215237,41.992728114106569,0],[-75.095492157289257,41.992240130384751,0],[-75.09620386750133,41.991746245728066,0],[-75.096911470204276,41.991246493894778,0],[-75.097614917031649,41.990740909044192,0],[-75.098314159901065,41.9902295257343,0],[-75.09900915101754,41.98971237891945,0],[-75.09969984287666,41.989189503947934,0],[-75.100386188267876,41.988660936559576,0],[-75.101068140277761,41.9881267128833,0],[-75.101745652293161,41.987586869434644,0],[-75.10241867800444,41.987041443113263,0],[-75.103087171408561,41.986490471200433,0],[-75.103751086812323,41.985933991356475,0],[-75.104410378835425,41.985372041618191,0],[-75.105065002413582,41.984804660396279,0],[-75.105714912801645,41.984231886472656,0],[-75.106360065576581,41.983653758997889,0],[-75.10700041664056,41.983070317488448,0],[-75.107635922223963,41.982481601824027,0],[-75.108266538888401,41.981887652244836,0],[-75.108892223529608,41.981288509348829,0],[-75.109512933380472,41.980684214088939,0],[-75.110128626013889,41.980074807770272,0],[-75.110739259345735,41.979460332047289,0],[-75.111344791637649,41.978840828920973,0],[-75.111945181499991,41.978216340735912,0],[-75.112540387894583,41.977586910177457,0],[-75.113130370137569,41.97695258026878,0],[-75.113715087902179,41.976313394367935,0],[-75.114294501221465,41.975669396164896,0],[-75.114868570491055,41.975020629678561,0],[-75.115437256471878,41.974367139253765,0],[-75.116000520292801,41.973708969558231,0],[-75.116558323453319,41.973046165579518,0],[-75.117110627826165,41.972378772621958,0],[-75.117657395659961,41.971706836303539,0],[-75.118198589581738,41.971030402552813,0],[-75.118734172599517,41.97034951760574,0],[-75.119264108104844,41.969664228002529,0],[-75.119788359875287,41.968974580584444,0],[-75.120306892076911,41.968280622490639,0],[-75.120819669266737,41.967582401154907,0],[-75.121326656395141,41.966879964302429,0],[-75.121827818808271,41.966173359946552,0],[-75.122323122250421,41.965462636385467,0],[-75.122812532866334,41.964747842198925,0],[-75.123296017203558,41.964029026244916,0],[-75.123773542214721,41.963306237656326,0],[-75.124245075259779,41.962579525837583,0],[-75.124710584108257,41.96184894046128,0],[-75.125170036941455,41.961114531464773,0],[-75.125623402354591,41.960376349046776,0],[-75.126070649359022,41.959634443663916,0],[-75.126511747384257,41.958888866027308,0],[-75.126946666280148,41.958139667099069,0],[-75.127375376318881,41.957386898088828,0],[-75.127797848197048,41.956630610450269,0],[-75.128214053037624,41.955870855877549,0],[-75.128623962391956,41.955107686301822,0],[-75.129027548241694,41.954341153887654,0],[-75.129424783000729,41.953571311029478,0],[-75.129815639517076,41.952798210347993,0],[-75.130200091074698,41.952021904686589,0],[-75.130578111395337,41.951242447107717,0],[-75.130949674640377,41.950459890889277,0],[-75.131314755412518,41.949674289520964,0],[-75.131673328757572,41.948885696700621,0],[-75.132025370166133,41.948094166330556,0],[-75.132370855575303,41.947299752513871,0],[-75.132709761370251,41.946502509550761,0],[-75.133042064385918,41.945702491934796,0],[-75.133367741908572,41.944899754349201,0],[-75.133686771677318,41.944094351663125,0],[-75.133999131885659,41.943286338927876,0],[-75.134304801182992,41.942475771373168,0],[-75.13460375867605,41.941662704403335,0],[-75.134895983930321,41.940847193593569,0],[-75.13518145697148,41.940029294686092,0],[-75.135460158286719,41.939209063586368,0],[-75.135732068826115,41.938386556359255,0],[-75.135997170003861,41.937561829225203,0],[-75.136255443699653,41.936734938556405,0],[-75.136506872259815,41.935905940872928,0],[-75.136751438498578,41.935074892838848,0],[-75.136989125699202,41.934241851258413,0],[-75.137219917615198,41.933406873072116,0],[-75.137443798471324,41.932570015352823,0],[-75.137660752964777,41.931731335301876,0],[-75.137870766266161,41.93089089024518,0],[-75.138073824020537,41.930048737629278,0],[-75.138269912348392,41.929204935017438,0],[-75.1384590178466,41.928359540085687,0],[-75.138641127589324,41.927512610618912,0],[-75.138816229128878,41.926664204506885,0],[-75.138984310496667,41.925814379740309,0],[-75.139145360203869,41.924963194406857,0],[-75.139299367242359,41.924110706687188,0],[-75.139446321085344,41.923256974851007,0],[-75.139586211688169,41.922402057253038,0],[-75.139719029488958,41.921546012329053,0],[-75.139844765409279,41.920688898591898,0],[-75.139963410854762,41.919830774627457,0],[-75.140074957715683,41.918971699090669,0],[-75.140179398367536,41.918111730701533,0],[-75.140276725671541,41.917250928241046,0],[-75.140366932975127,41.916389350547242,0],[-75.140450014112417,41.915527056511131,0],[-75.140525963404571,41.914664105072696,0],[-75.14059477566029,41.913800555216845,0],[-75.140656446176067,41.912936465969388,0],[-75.140710970736578,41.912071896393023,0],[-75.140758345614927,41.911206905583249,0],[-75.140798567572915,41.910341552664391,0],[-75.140831633861268,41.909475896785501,0],[-75.140857542219834,41.908609997116351,0],[-75.140876290877713,41.907743912843365,0],[-75.140887878553372,41.906877703165605,0],[-75.140892304454766,41.906011427290679,0],[-75.140889568279391,41.90514514443074,0],[-75.140879670214247,41.904278913798407,0],[-75.140862610935912,41.903412794602737,0],[-75.140838391610416,41.902546846045169,0],[-75.140807013893223,41.901681127315477,0],[-75.140768479929065,41.900815697587717,0],[-75.140722792351852,41.899950616016206,0],[-75.140669954284448,41.899085941731457,0],[-75.140609969338442,41.898221733836131,0],[-75.140542841613978,41.897358051401042,0],[-75.140468575699401,41.896494953461051,0],[-75.140387176670984,41.895632499011093,0],[-75.140298650092532,41.894770747002106,0],[-75.140203002015085,41.893909756337024,0],[-75.140100238976416,41.893049585866727,0],[-75.139990368000653,41.892190294386054,0],[-75.139873396597736,41.891331940629733,0],[-75.13974933276296,41.890474583268428,0],[-75.139618184976428,41.889618280904678,0],[-75.139479962202387,41.888763092068913,0],[-75.139334673888726,41.887909075215454,0],[-75.139182329966275,41.887056288718505,0],[-75.139022940848122,41.886204790868192,0],[-75.138856517428906,41.885354639866534,0],[-75.138683071084117,41.884505893823501,0],[-75.138502613669218,41.883658610753038,0],[-75.138315157518946,41.882812848569088,0],[-75.138120715446405,41.881968665081622,0],[-75.137919300742197,41.881126117992721,0],[-75.137710927173529,41.880285264892613,0],[-75.137495608983258,41.879446163255736,0],[-75.137273360888926,41.878608870436793,0],[-75.137044198081767,41.877773443666875,0],[-75.136808136225611,41.876939940049517,0],[-75.136565191455901,41.876108416556796,0],[-75.13631538037852,41.875278930025438,0],[-75.136058720068704,41.87445153715295,0],[-75.135795228069796,41.873626294493732,0],[-75.135524922392179,41.872803258455193,0],[-75.135247821511911,41.871982485293941,0],[-75.134963944369545,41.871164031111888,0],[-75.134673310368782,41.870347951852445,0],[-75.134375939375218,41.869534303296703,0],[-75.134071851714907,41.86872314105959,0],[-75.133761068172987,41.867914520586091,0],[-75.133443609992327,41.86710849714747,0],[-75.133119498871977,41.866305125837457,0],[-75.132788756965752,41.86550446156852,0],[-75.132451406880705,41.864706559068082,0],[-75.132107471675567,41.863911472874804,0],[-75.131756974859186,41.863119257334823,0],[-75.131399940388889,41.862329966598082,0],[-75.131036392668889,41.8615436546146,0],[-75.130666356548602,41.860760375130788,0],[-75.130289857320932,41.859980181685778,0],[-75.129906920720529,41.859203127607763,0],[-75.129517572922111,41.858429266010354,0],[-75.129121840538559,41.857658649788952,0],[-75.128719750619197,41.85689133161712,0],[-75.128311330647875,41.856127363942988,0],[-75.127896608541135,41.855366798985692,0],[-75.127475612646293,41.854609688731763,0],[-75.127048371739477,41.8538560849316,0],[-75.12661491502368,41.853106039095927,0],[-75.126175272126758,41.852359602492278,0],[-75.125729473099426,41.85161682614148,0],[-75.125277548413152,41.850877760814171,0],[-75.12481952895817,41.850142457027339,0],[-75.124355446041235,41.849410965040853,0],[-75.123885331383605,41.848683334854037,0],[-75.123409217118791,41.847959616202267,0],[-75.12292713579042,41.847239858553529,0],[-75.122439120349966,41.846524111105083,0],[-75.121945204154514,41.845812422780078,0],[-75.121445420964477,41.845104842224202,0],[-75.120939804941329,41.844401417802388,0],[-75.120428390645174,41.843702197595469,0],[-75.119911213032481,41.843007229396903,0],[-75.119388307453647,41.842316560709541,0],[-75.118859709650593,41.841630238742319,0],[-75.118325455754317,41.840948310407086,0],[-75.117785582282409,41.840270822315368,0],[-75.117240126136608,41.83959782077519,0],[-75.116689124600214,41.838929351787904,0],[-75.116132615335559,41.838265461045054,0],[-75.115570636381477,41.837606193925254,0],[-75.115003226150634,41.83695159549108,0],[-75.114430423426967,41.836301710485991,0],[-75.113852267363001,41.835656583331264,0],[-75.113268797477133,41.83501625812297,0],[-75.112680053651019,41.834380778628969,0],[-75.112086076126801,41.833750188285876,0],[-75.111486905504336,41.833124530196137,0],[-75.110882582738441,41.832503847125075,0],[-75.110273149136106,41.831888181497945,0],[-75.10965864635368,41.831277575397039,0],[-75.109039116393959,41.830672070558833,0],[-75.108414601603386,41.830071708371115,0],[-75.107785144669137,41.829476529870149,0],[-75.107150788616181,41.828886575737911,0],[-75.106511576804337,41.828301886299236,0],[-75.105867552925375,41.827722501519141,0],[-75.105218760999946,41.827148461000036,0]]]},"properties":{"OBJECTID":65,"Position":"N5H","Low":0,"High":4000,"Notes":null,"Fill":"#267300","Stroke":"#267300","Sector":"Catskill"}},{"type":"Feature","id":74,"geometry":{"type":"Polygon","coordinates":[[[-73.109650313999964,41.058495909000044,0],[-73.087201532999984,41.077825945000029,0],[-72.973214182999982,41.179384692000042,0],[-72.850001110999983,41.288906667000049,0],[-72.873428946999979,41.301273732000027,0],[-73.002882212999964,41.369609409000077,0],[-73.199999166999987,41.473663333000047,0],[-73.212854999999934,41.588565000000074,0],[-73.300106943999936,41.587438056000053,0],[-73.30002944499995,41.562461389000077,0],[-73.463567723999972,41.439814266000042,0],[-73.385360277999951,41.359022778000053,0],[-73.436120833999951,41.23668888900005,0],[-73.365526172999978,41.180009691000066,0],[-73.159771666999973,41.014813056000037,0],[-73.109650313999964,41.058495909000044,0]]]},"properties":{"OBJECTID":74,"Position":"N5E","Low":10000,"High":17000,"Notes":null,"Fill":"#A3FF73","Stroke":"#A3FF73","Sector":"East"}},{"type":"Feature","id":75,"geometry":{"type":"Polygon","coordinates":[[[-72.801112499999988,41.330851667000047,0],[-73.002882212999964,41.369609409000077,0],[-72.873387183999967,41.301290980000033,0],[-72.850001110999983,41.288906667000049,0],[-72.801112499999988,41.330851667000047,0]]]},"properties":{"OBJECTID":75,"Position":"N5E","Low":10000,"High":10000,"Notes":null,"Fill":"#A3FF73","Stroke":"#A3FF73","Sector":"East"}},{"type":"Feature","id":77,"geometry":{"type":"Polygon","coordinates":[[[-73.385360277999951,41.359022778000053,0],[-73.463567723999972,41.439814266000042,0],[-73.58378965299994,41.346122091000041,0],[-73.436120833999951,41.23668888900005,0],[-73.385360277999951,41.359022778000053,0]]]},"properties":{"OBJECTID":77,"Position":"N5E","Low":12000,"High":17000,"Notes":null,"Fill":"#A3FF73","Stroke":"#A3FF73","Sector":"East"}},{"type":"Feature","id":78,"geometry":{"type":"Polygon","coordinates":[[[-73.086215840999955,40.947984933000043,0],[-73.072566110999958,40.954707222000025,0],[-73.084003566999968,40.986855598000034,0],[-73.109650313999964,41.058495909000044,0],[-73.159771666999973,41.014813056000037,0],[-73.204449157999989,40.976994843000057,0],[-73.242224145999955,40.94510123200007,0],[-73.195766473999981,40.935744273000068,0],[-73.135450645999981,40.923665584000048,0],[-73.086215840999955,40.947984933000043,0]]]},"properties":{"OBJECTID":78,"Position":"N5E","Low":9000,"High":14000,"Notes":null,"Fill":"#A3FF73","Stroke":"#A3FF73","Sector":"East"}},{"type":"Feature","id":79,"geometry":{"type":"Polygon","coordinates":[[[-73.242224145999955,40.94510123200007,0],[-73.204449157999989,40.976994843000057,0],[-73.159771666999973,41.014813056000037,0],[-73.365547773999936,41.180229324000038,0],[-73.365526172999978,41.180009691000066,0],[-73.344430831999944,40.965515000000039,0],[-73.300001485999985,40.897797806000028,0],[-73.242224145999955,40.94510123200007,0]]]},"properties":{"OBJECTID":79,"Position":"N5E","Low":9000,"High":19000,"Notes":null,"Fill":"#A3FF73","Stroke":"#A3FF73","Sector":"East"}},{"type":"Feature","id":80,"geometry":{"type":"Polygon","coordinates":[[[-73.361304271999984,40.959193473000028,0],[-73.344430831999944,40.965515000000039,0],[-73.365526172999978,41.180009691000066,0],[-73.365547773999936,41.180229324000038,0],[-73.436120833999951,41.23668888900005,0],[-73.425111025999968,41.085071523000067,0],[-73.423631818999979,41.064697202000048,0],[-73.401759156999958,41.027740772000072,0],[-73.388219847999949,41.004843000000051,0],[-73.393448172999967,40.947090339000056,0],[-73.361304271999984,40.959193473000028,0]]]},"properties":{"OBJECTID":80,"Position":"N5E","Low":9000,"High":19000,"Notes":null,"Fill":"#A3FF73","Stroke":"#A3FF73","Sector":"East"}},{"type":"Feature","id":81,"geometry":{"type":"Polygon","coordinates":[[[-73.401759156999958,41.027740772000072,0],[-73.423631818999979,41.064697202000048,0],[-73.425111025999968,41.085071523000067,0],[-73.436120833999951,41.23668888900005,0],[-73.535480376999942,41.248488655000074,0],[-73.594112271999961,41.177618530000075,0],[-73.62884472199994,41.135636389000069,0],[-73.48277275099997,41.056237913000075,0],[-73.482585250999989,41.05613599600008,0],[-73.418828347999977,41.021519570000066,0],[-73.388219847999949,41.004843000000051,0],[-73.401759156999958,41.027740772000072,0]]]},"properties":{"OBJECTID":81,"Position":"N5E","Low":10000,"High":19000,"Notes":null,"Fill":"#A3FF73","Stroke":"#A3FF73","Sector":"East"}},{"type":"Feature","id":82,"geometry":{"type":"Polygon","coordinates":[[[-73.58378965299994,41.346122091000041,0],[-73.80074194499997,41.294205891000047,0],[-73.832957481999983,41.283941190000064,0],[-73.889583916999982,41.265898548000052,0],[-73.895832777999942,41.263907500000073,0],[-73.878901672999973,41.008626897000056,0],[-73.844303406999984,40.99043838800003,0],[-73.844303374999981,40.990438371000039,0],[-73.748016092999933,40.990678505000062,0],[-73.674415277999969,41.080162500000029,0],[-73.62884472199994,41.135636389000069,0],[-73.594112271999961,41.177618530000075,0],[-73.535480376999942,41.248488655000074,0],[-73.436120833999951,41.23668888900005,0],[-73.58378965299994,41.346122091000041,0]]]},"properties":{"OBJECTID":82,"Position":"N5E","Low":12000,"High":19000,"Notes":null,"Fill":"#A3FF73","Stroke":"#A3FF73","Sector":"East"}},{"type":"Feature","id":83,"geometry":{"type":"Polygon","coordinates":[[[-73.889583916999982,41.265898548000052,0],[-73.832957481999983,41.283941190000064,0],[-73.80074194499997,41.294205891000047,0],[-73.846241971999973,41.300982525000052,0],[-73.923234201999946,41.312113975000045,0],[-74.007990348999954,41.324501412000075,0],[-73.895832777999942,41.263907500000073,0],[-73.889583916999982,41.265898548000052,0]]]},"properties":{"OBJECTID":83,"Position":"N5E","Low":12000,"High":17000,"Notes":null,"Fill":"#A3FF73","Stroke":"#A3FF73","Sector":"East"}},{"type":"Feature","id":84,"geometry":{"type":"Polygon","coordinates":[[[-73.789417047999962,40.851477858000067,0],[-73.693124329999989,40.858240331000047,0],[-73.609521284999971,40.864486768000063,0],[-73.650093075999962,40.886269137000056,0],[-73.709232724999936,40.918007465000073,0],[-73.747067449999975,40.938304144000028,0],[-73.747067568999967,40.938304208000034,0],[-73.844303374999981,40.990438371000039,0],[-73.844303406999984,40.99043838800003,0],[-73.878901672999973,41.008626897000056,0],[-73.876016411999956,40.964411535000067,0],[-73.876016266999954,40.964409322000051,0],[-73.870979999999975,40.887231111000062,0],[-73.811379556999952,40.858915548000027,0],[-73.81135928599997,40.858905916000026,0],[-73.794915832999948,40.851091667000048,0],[-73.789417047999962,40.851477858000067,0]]]},"properties":{"OBJECTID":84,"Position":"N5E","Low":16000,"High":19000,"Notes":null,"Fill":"#A3FF73","Stroke":"#A3FF73","Sector":"East"}},{"type":"Feature","id":85,"geometry":{"type":"Polygon","coordinates":[[[-73.685066280999933,40.833836604000055,0],[-73.609521284999971,40.864486768000063,0],[-73.693124329999989,40.858240331000047,0],[-73.712637820999987,40.856869987000039,0],[-73.789417047999962,40.851477858000067,0],[-73.794915832999948,40.851091667000048,0],[-73.791715589999967,40.849569753000026,0],[-73.760438829999941,40.834693869000034,0],[-73.759860300999947,40.834664419000035,0],[-73.731529903999956,40.833222246000048,0],[-73.691385275999949,40.831178611000041,0],[-73.685066280999933,40.833836604000055,0]]]},"properties":{"OBJECTID":85,"Position":"N5E","Low":16000,"High":17000,"Notes":null,"Fill":"#A3FF73","Stroke":"#A3FF73","Sector":"East"}},{"type":"Feature","id":86,"geometry":{"type":"Polygon","coordinates":[[[-73.579500690999964,40.875963477000028,0],[-73.468364153999971,40.918926099000032,0],[-73.393448172999967,40.947090339000056,0],[-73.388219847999949,41.004843000000051,0],[-73.418828347999977,41.021519570000066,0],[-73.482585250999989,41.05613599600008,0],[-73.48277275099997,41.056237913000075,0],[-73.62884472199994,41.135636389000069,0],[-73.674415277999969,41.080162500000029,0],[-73.748016092999933,40.990678505000062,0],[-73.844303374999981,40.990438371000039,0],[-73.747067568999967,40.938304208000034,0],[-73.747067449999975,40.938304144000028,0],[-73.709232724999936,40.918007465000073,0],[-73.650093075999962,40.886269137000056,0],[-73.609521284999971,40.864486768000063,0],[-73.579500690999964,40.875963477000028,0]]]},"properties":{"OBJECTID":86,"Position":"N5E","Low":11000,"High":19000,"Notes":null,"Fill":"#A3FF73","Stroke":"#A3FF73","Sector":"East"}},{"type":"Feature","id":87,"geometry":{"type":"Polygon","coordinates":[[[-73.303359801999989,40.895045154000059,0],[-73.300001485999985,40.897797806000028,0],[-73.344430831999944,40.965515000000039,0],[-73.361304271999984,40.959193473000028,0],[-73.393448172999967,40.947090339000056,0],[-73.468364153999971,40.918926099000032,0],[-73.579500690999964,40.875963477000028,0],[-73.609521284999971,40.864486768000063,0],[-73.378064106999943,40.859754469000052,0],[-73.36138916699997,40.847518889000071,0],[-73.303359801999989,40.895045154000059,0]]]},"properties":{"OBJECTID":87,"Position":"N5E","Low":18000,"High":19000,"Notes":null,"Fill":"#A3FF73","Stroke":"#A3FF73","Sector":"East"}},{"type":"Feature","id":89,"geometry":{"type":"Polygon","coordinates":[[[-73.895832777999942,41.263907500000073,0],[-74.007990348999954,41.324501412000075,0],[-74.039806388999978,41.329131389000054,0],[-74.061535832999937,41.341598889000068,0],[-74.07515600499994,41.319172150000043,0],[-74.094510108999941,41.287493957000038,0],[-74.171024720999981,41.161316389000035,0],[-74.142615590999981,41.146598891000053,0],[-74.114632295999968,41.132117118000053,0],[-73.991684938999981,41.068271636000077,0],[-73.978728261999947,41.06152856600005,0],[-73.878901672999973,41.008626897000056,0],[-73.895832777999942,41.263907500000073,0]]]},"properties":{"OBJECTID":89,"Position":"N5N","Low":12000,"High":17000,"Notes":null,"Fill":"#B2FDCB","Stroke":"#B2FDCB","Sector":"North"}},{"type":"Feature","id":90,"geometry":{"type":"Polygon","coordinates":[[[-74.26045583299998,41.201300833000062,0],[-74.140985581999985,41.285563069000034,0],[-74.090567917999977,41.321122591000062,0],[-74.061535832999937,41.341598889000068,0],[-74.182532506999962,41.400987653000072,0],[-74.182741444999976,41.400833915000078,0],[-74.261623430999975,41.342791993000048,0],[-74.261646149999933,41.342775276000054,0],[-74.317907499999933,41.301377778000074,0],[-74.357341605999977,41.276392228000077,0],[-74.516326666999987,41.175658889000033,0],[-74.420666388999962,41.150930000000074,0],[-74.26045583299998,41.201300833000062,0]]]},"properties":{"OBJECTID":90,"Position":"N5N","Low":9000,"High":17000,"Notes":null,"Fill":"#B2FDCB","Stroke":"#B2FDCB","Sector":"North"}},{"type":"Feature","id":91,"geometry":{"type":"Polygon","coordinates":[[[-74.094510108999941,41.287493957000038,0],[-74.07515600499994,41.319172150000043,0],[-74.061535832999937,41.341598889000068,0],[-74.090567917999977,41.321122591000062,0],[-74.140985581999985,41.285563069000034,0],[-74.26045583299998,41.201300833000062,0],[-74.420666388999962,41.150930000000074,0],[-74.516326666999987,41.175658889000033,0],[-74.572752769999965,41.118987208000078,0],[-74.665357221999955,41.025979722000045,0],[-74.596864362999952,41.017622706000054,0],[-74.360850768999967,40.98882562600005,0],[-74.324758772999985,40.993617880000045,0],[-74.304237221999983,41.000011111000049,0],[-74.199606388999939,41.174078611000027,0],[-74.171024720999981,41.161316389000035,0],[-74.094510108999941,41.287493957000038,0]]]},"properties":{"OBJECTID":91,"Position":"N5N","Low":8000,"High":17000,"Notes":null,"Fill":"#B2FDCB","Stroke":"#B2FDCB","Sector":"North"}},{"type":"Feature","id":92,"geometry":{"type":"Polygon","coordinates":[[[-74.255441408999957,41.020400398000049,0],[-74.171024720999981,41.161316389000035,0],[-74.199606388999939,41.174078611000027,0],[-74.304237221999983,41.000011111000049,0],[-74.279742221999982,40.979835278000053,0],[-74.255441408999957,41.020400398000049,0]]]},"properties":{"OBJECTID":92,"Position":"N5N","Low":9000,"High":17000,"Notes":null,"Fill":"#B2FDCB","Stroke":"#B2FDCB","Sector":"North"}},{"type":"Feature","id":93,"geometry":{"type":"Polygon","coordinates":[[[-73.878901672999973,41.008626897000056,0],[-73.978728261999947,41.06152856600005,0],[-73.991684938999981,41.068271636000077,0],[-74.114632295999968,41.132117118000053,0],[-74.142615590999981,41.146598891000053,0],[-74.171024720999981,41.161316389000035,0],[-74.255441408999957,41.020400398000049,0],[-74.279742221999982,40.979835278000053,0],[-74.244257957999935,40.980200143000047,0],[-74.166685555999948,40.980997778000074,0],[-74.157692777999955,41.003286944000081,0],[-74.089867080999966,40.987052503000029,0],[-73.979471366999974,40.938651136000033,0],[-73.93377034699995,40.917013074000067,0],[-73.870979999999975,40.887231111000062,0],[-73.876016266999954,40.964409322000051,0],[-73.876016411999956,40.964411535000067,0],[-73.878901672999973,41.008626897000056,0]]]},"properties":{"OBJECTID":93,"Position":"N5N","Low":16000,"High":17000,"Notes":null,"Fill":"#B2FDCB","Stroke":"#B2FDCB","Sector":"North"}},{"type":"Feature","id":94,"geometry":{"type":"Polygon","coordinates":[[[-74.598309166999968,40.957003889000077,0],[-74.547828486999947,40.963778223000077,0],[-74.438728834999949,40.978419021000036,0],[-74.360850768999967,40.98882562600005,0],[-74.596864362999952,41.017622706000054,0],[-74.665357221999955,41.025979722000045,0],[-74.629350000999978,40.949589167000056,0],[-74.598309166999968,40.957003889000077,0]]]},"properties":{"OBJECTID":94,"Position":"N5N","Low":8000,"High":9000,"Notes":null,"Fill":"#B2FDCB","Stroke":"#B2FDCB","Sector":"North"}},{"type":"Feature","id":95,"geometry":{"type":"Polygon","coordinates":[[[-74.629350000999978,40.949589167000056,0],[-74.665357221999955,41.025979722000045,0],[-74.809191943999963,41.044517222000025,0],[-74.849995277999938,40.983382222000046,0],[-74.943053392999957,40.963805531000048,0],[-74.989471869999988,40.954013132000057,0],[-74.941715555999963,40.940198611000028,0],[-74.88008378699999,40.925594953000029,0],[-74.878624721999984,40.889591944000074,0],[-74.629350000999978,40.949589167000056,0]]]},"properties":{"OBJECTID":95,"Position":"N5N","Low":8000,"High":9000,"Notes":null,"Fill":"#B2FDCB","Stroke":"#B2FDCB","Sector":"North"}},{"type":"Feature","id":96,"geometry":{"type":"Polygon","coordinates":[[[-74.75549689099995,41.245386751000069,0],[-74.782855555999959,41.261851111000055,0],[-74.83860978599995,41.216997075000052,0],[-74.922545555999989,41.149471111000025,0],[-74.864272221999954,41.113698611000075,0],[-74.809191943999963,41.044517222000025,0],[-74.665357221999955,41.025979722000045,0],[-74.516326666999987,41.175658889000033,0],[-74.657434999999964,41.241845556000044,0],[-74.718238888999963,41.222965000000045,0],[-74.75549689099995,41.245386751000069,0]]]},"properties":{"OBJECTID":96,"Position":"N5N","Low":8000,"High":16000,"Notes":null,"Fill":"#B2FDCB","Stroke":"#B2FDCB","Sector":"North"}},{"type":"Feature","id":97,"geometry":{"type":"Polygon","coordinates":[[[-74.357341605999977,41.276392228000077,0],[-74.317907499999933,41.301377778000074,0],[-74.397489909999933,41.359968475000073,0],[-74.397506373999988,41.359980596000071,0],[-74.415833268999961,41.373473346000026,0],[-74.466842221999968,41.411027500000046,0],[-74.525236666999945,41.47346222200008,0],[-74.782855555999959,41.261851111000055,0],[-74.75549689099995,41.245386751000069,0],[-74.718238888999963,41.222965000000045,0],[-74.657434999999964,41.241845556000044,0],[-74.516326666999987,41.175658889000033,0],[-74.357341605999977,41.276392228000077,0]]]},"properties":{"OBJECTID":97,"Position":"N5N","Low":9000,"High":16000,"Notes":null,"Fill":"#B2FDCB","Stroke":"#B2FDCB","Sector":"North"}},{"type":"Feature","id":98,"geometry":{"type":"Polygon","coordinates":[[[-74.182532506999962,41.400987653000072,0],[-74.44713361099997,41.530046389000063,0],[-74.525236666999945,41.47346222200008,0],[-74.466842221999968,41.411027500000046,0],[-74.317907499999933,41.301377778000074,0],[-74.182532506999962,41.400987653000072,0]]]},"properties":{"OBJECTID":98,"Position":"N5N","Low":11000,"High":16000,"Notes":null,"Fill":"#B2FDCB","Stroke":"#B2FDCB","Sector":"North"}},{"type":"Feature","id":99,"geometry":{"type":"Polygon","coordinates":[[[-74.598309166999968,40.957003889000077,0],[-74.547828486999947,40.963778223000077,0],[-74.438728834999949,40.978419021000036,0],[-74.360850768999967,40.98882562600005,0],[-74.596864362999952,41.017622706000054,0],[-74.665357221999955,41.025979722000045,0],[-74.629350000999978,40.949589167000056,0],[-74.598309166999968,40.957003889000077,0]]]},"properties":{"OBJECTID":99,"Position":"N5W","Low":10000,"High":17000,"Notes":null,"Fill":"#55FF00","Stroke":"#55FF00","Sector":"West"}},{"type":"Feature","id":100,"geometry":{"type":"Polygon","coordinates":[[[-74.629350000999978,40.949589167000056,0],[-74.665357221999955,41.025979722000045,0],[-74.809191943999963,41.044517222000025,0],[-74.849995277999938,40.983382222000046,0],[-74.943053392999957,40.963805531000048,0],[-74.989471869999988,40.954013132000057,0],[-74.941715555999963,40.940198611000028,0],[-74.88008378699999,40.925594953000029,0],[-74.878624721999984,40.889591944000074,0],[-74.629350000999978,40.949589167000056,0]]]},"properties":{"OBJECTID":100,"Position":"N5W","Low":10000,"High":17000,"Notes":null,"Fill":"#55FF00","Stroke":"#55FF00","Sector":"West"}},{"type":"Feature","id":101,"geometry":{"type":"Polygon","coordinates":[[[-74.970727777999969,40.629972778000081,0],[-74.970803917999945,40.643138842000042,0],[-74.971060832999967,40.687564444000031,0],[-74.97775055599999,40.744240556000079,0],[-74.983344166999984,40.889677222000046,0],[-74.989471869999988,40.954013132000057,0],[-74.943053392999957,40.963805531000048,0],[-74.849995277999938,40.983382222000046,0],[-74.809191943999963,41.044517222000025,0],[-74.864272221999954,41.113698611000075,0],[-74.874954721999984,41.054180000000031,0],[-74.920980807999968,41.013629569000045,0],[-75.071870713999942,40.978040445000033,0],[-75.072235785999965,40.977954339000064,0],[-75.271940555999947,40.93085166700007,0],[-75.196463186999949,40.791313584000079,0],[-75.125861388999965,40.660789167000075,0],[-75.125039166999954,40.577846111000042,0],[-75.106911388999947,40.525072778000037,0],[-74.970727777999969,40.629972778000081,0]]]},"properties":{"OBJECTID":101,"Position":"N5W","Low":14000,"High":17000,"Notes":null,"Fill":"#55FF00","Stroke":"#55FF00","Sector":"West"}},{"type":"Feature","id":102,"geometry":{"type":"Polygon","coordinates":[[[-75.006998610999972,40.490858056000036,0],[-74.973629721999941,40.51387694400006,0],[-74.904978055999948,40.574159444000031,0],[-74.943658827999968,40.614693306000049,0],[-74.970803917999945,40.643138842000042,0],[-74.970727777999969,40.629972778000081,0],[-75.106911388999947,40.525072778000037,0],[-75.066617500999939,40.48329444400008,0],[-75.006998610999972,40.490858056000036,0]]]},"properties":{"OBJECTID":102,"Position":"N5W","Low":12000,"High":17000,"Notes":null,"Fill":"#55FF00","Stroke":"#55FF00","Sector":"West"}},{"type":"Feature","id":103,"geometry":{"type":"Polygon","coordinates":[[[-74.616092972999979,40.518957267000076,0],[-74.727956694999989,40.560210126000072,0],[-74.858316388999981,40.608283889000063,0],[-74.861327202999973,40.649989241000071,0],[-74.874265585999979,40.829209835000029,0],[-74.87635454499997,40.858145782000065,0],[-74.878624721999984,40.889591944000074,0],[-74.88008378699999,40.925594953000029,0],[-74.941715555999963,40.940198611000028,0],[-74.989471869999988,40.954013132000057,0],[-74.983344166999984,40.889677222000046,0],[-74.97775055599999,40.744240556000079,0],[-74.971060832999967,40.687564444000031,0],[-74.970803917999945,40.643138842000042,0],[-74.943658827999968,40.614693306000049,0],[-74.904978055999948,40.574159444000031,0],[-74.973629721999941,40.51387694400006,0],[-75.006998610999972,40.490858056000036,0],[-75.066617500999939,40.48329444400008,0],[-74.876445832999934,40.401346667000041,0],[-74.619955832999949,40.458220833000041,0],[-74.589133369999956,40.479921966000063,0],[-74.52883890399994,40.522373415000061,0],[-74.528837396999961,40.522374477000028,0],[-74.528799730999935,40.522400996000044,0],[-74.608285277999983,40.519262500000025,0],[-74.616088332999936,40.518955556000037,0],[-74.616092972999979,40.518957267000076,0]]]},"properties":{"OBJECTID":103,"Position":"N5W","Low":11000,"High":17000,"Notes":null,"Fill":"#55FF00","Stroke":"#55FF00","Sector":"West"}},{"type":"Feature","id":104,"geometry":{"type":"Polygon","coordinates":[[[-75.066617500999939,40.48329444400008,0],[-74.957027221999965,40.341636944000072,0],[-74.835762887999977,40.305667454000059,0],[-74.835278332999962,40.306032778000031,0],[-74.768855408999968,40.352979910000045,0],[-74.673284084999977,40.42052889200005,0],[-74.631280451999942,40.450216691000037,0],[-74.619955832999949,40.458220833000041,0],[-74.876445832999934,40.401346667000041,0],[-75.066617500999939,40.48329444400008,0]]]},"properties":{"OBJECTID":104,"Position":"N5W","Low":11000,"High":13000,"Notes":null,"Fill":"#55FF00","Stroke":"#55FF00","Sector":"West"}},{"type":"Feature","id":105,"geometry":{"type":"Polygon","coordinates":[[[-74.608285277999983,40.519262500000025,0],[-74.605154324999944,40.656645481000055,0],[-74.604695918999937,40.676759846000039,0],[-74.602307785999983,40.783479260000036,0],[-74.601733610999986,40.808478889000071,0],[-74.601157364999949,40.833477643000037,0],[-74.598886687999936,40.932000662000064,0],[-74.598309166999968,40.957003889000077,0],[-74.629350000999978,40.949589167000056,0],[-74.878624721999984,40.889591944000074,0],[-74.87635454499997,40.858145782000065,0],[-74.874265585999979,40.829209835000029,0],[-74.861327202999973,40.649989241000071,0],[-74.858316388999981,40.608283889000063,0],[-74.727956694999989,40.560210126000072,0],[-74.616092972999979,40.518957267000076,0],[-74.616088332999936,40.518955556000037,0],[-74.608285277999983,40.519262500000025,0]]]},"properties":{"OBJECTID":105,"Position":"N5W","Low":10000,"High":17000,"Notes":null,"Fill":"#55FF00","Stroke":"#55FF00","Sector":"West"}},{"type":"Feature","id":106,"geometry":{"type":"Polygon","coordinates":[[[-74.528799730999935,40.522400996000044,0],[-74.441102336999961,40.583813151000072,0],[-74.388877499999978,40.620358056000043,0],[-74.447235520999982,40.630149497000048,0],[-74.605154324999944,40.656645480000066,0],[-74.608285277999983,40.519262500000025,0],[-74.528799730999935,40.522400996000044,0]]]},"properties":{"OBJECTID":106,"Position":"N5W","Low":12000,"High":17000,"Notes":null,"Fill":"#55FF00","Stroke":"#55FF00","Sector":"West"}},{"type":"Feature","id":107,"geometry":{"type":"Polygon","coordinates":[[[-74.237427777999983,40.726126111000042,0],[-74.264277499999935,40.739522778000037,0],[-74.300465027999962,40.889842139000052,0],[-74.315184721999969,40.950874722000037,0],[-74.279742221999982,40.979835278000053,0],[-74.304237221999983,41.000011111000049,0],[-74.324758772999985,40.993617880000045,0],[-74.360850768999967,40.98882562600005,0],[-74.438728834999949,40.978419021000036,0],[-74.547828486999947,40.963778223000077,0],[-74.598309166999968,40.957003889000077,0],[-74.598886687999936,40.932000662000064,0],[-74.601157364999949,40.833477643000037,0],[-74.601733610999986,40.808478889000071,0],[-74.602307785999983,40.783479260000036,0],[-74.604695918999937,40.676759846000039,0],[-74.605154324999944,40.656645481000055,0],[-74.44723552499994,40.630149497000048,0],[-74.388877499999978,40.620358056000043,0],[-74.237427777999983,40.726126111000042,0]]]},"properties":{"OBJECTID":107,"Position":"N5W","Low":11000,"High":17000,"Notes":null,"Fill":"#55FF00","Stroke":"#55FF00","Sector":"West"}},{"type":"Feature","id":108,"geometry":{"type":"Polygon","coordinates":[[[-74.251130355999976,40.77205319400008,0],[-74.205634045999943,40.884626230000038,0],[-74.195418186999973,40.909991637000076,0],[-74.166685555999948,40.980997778000074,0],[-74.244257957999935,40.980200143000047,0],[-74.279742221999982,40.979835278000053,0],[-74.315184721999969,40.950874722000037,0],[-74.300465027999962,40.889842139000052,0],[-74.264277499999935,40.739522778000037,0],[-74.251130355999976,40.77205319400008,0]]]},"properties":{"OBJECTID":108,"Position":"N5W","Low":16000,"High":17000,"Notes":null,"Fill":"#55FF00","Stroke":"#55FF00","Sector":"West"}},{"type":"Feature","id":109,"geometry":{"type":"Polygon","coordinates":[[[-74.185400725999955,40.630699604000029,0],[-74.109741388999964,40.66222444400006,0],[-74.230400042999975,40.722610620000069,0],[-74.230400067999938,40.722610632000055,0],[-74.230400290999967,40.722610744000065,0],[-74.237427777999983,40.726126111000042,0],[-74.388877499999978,40.620358056000043,0],[-74.215965278999988,40.617941667000025,0],[-74.185400725999955,40.630699604000029,0]]]},"properties":{"OBJECTID":109,"Position":"N5S","Low":11000,"High":17000,"Notes":null,"Fill":"#5C8944","Stroke":"#5C8944","Sector":"South"}},{"type":"Feature","id":110,"geometry":{"type":"Polygon","coordinates":[[[-74.433470554999985,40.526110000000074,0],[-74.215965278999988,40.617941667000025,0],[-74.388877499999978,40.620358056000043,0],[-74.441102336999961,40.583813151000072,0],[-74.528799730999935,40.522400996000044,0],[-74.433470554999985,40.526110000000074,0]]]},"properties":{"OBJECTID":110,"Position":"N5S","Low":12000,"High":17000,"Notes":null,"Fill":"#5C8944","Stroke":"#5C8944","Sector":"South"}},{"type":"Feature","id":111,"geometry":{"type":"Polygon","coordinates":[[[-74.273533498999939,40.341368088000024,0],[-74.229568055999948,40.35484583300007,0],[-74.194040555999948,40.383234444000038,0],[-74.187343055999975,40.384001389000048,0],[-74.148068359999968,40.400112550000074,0],[-74.130068227999971,40.407484201000045,0],[-74.087677221999968,40.424844722000046,0],[-74.081502221999983,40.432286667000028,0],[-74.100540127999977,40.587389778000045,0],[-74.109741388999964,40.66222444400006,0],[-74.185400725999955,40.630699604000029,0],[-74.215965278999988,40.617941667000025,0],[-74.433470554999985,40.526110000000074,0],[-74.528799730999935,40.522400996000044,0],[-74.528837396999961,40.522374477000028,0],[-74.589126791999945,40.479908453000064,0],[-74.631280451999942,40.450216691000037,0],[-74.67334834899998,40.42058533900007,0],[-74.673284084999977,40.42052889200005,0],[-74.673284011999954,40.420528828000045,0],[-74.589816455999937,40.347213598000053,0],[-74.558270277999952,40.319504444000074,0],[-74.593032709999989,40.305005381000058,0],[-74.641798191999953,40.284665799000038,0],[-74.692984577999937,40.263316477000046,0],[-74.709915186999979,40.24578490600004,0],[-74.66497609399994,40.255008586000031,0],[-74.619540288999985,40.264333918000034,0],[-74.595759962999978,40.269214489000035,0],[-74.477198748999967,40.293548368000074,0],[-74.431132008999953,40.275681760000055,0],[-74.429959370999939,40.275226962000033,0],[-74.397196110999971,40.262520000000052,0],[-74.388388031999966,40.251006630000063,0],[-74.273533498999939,40.341368088000024,0]]]},"properties":{"OBJECTID":111,"Position":"N5S","Low":11000,"High":17000,"Notes":null,"Fill":"#5C8944","Stroke":"#5C8944","Sector":"South"}},{"type":"Feature","id":112,"geometry":{"type":"Polygon","coordinates":[[[-74.641798191999953,40.284665799000038,0],[-74.593032709999989,40.305005381000058,0],[-74.558270277999952,40.319504444000074,0],[-74.589816455999937,40.347213598000053,0],[-74.673284011999954,40.420528828000045,0],[-74.673284084999977,40.42052889200005,0],[-74.67334834899998,40.42058533900007,0],[-74.768894822999982,40.352993823000077,0],[-74.768902733999937,40.352988226000036,0],[-74.835278332999962,40.306032778000031,0],[-74.835762887999977,40.305667454000059,0],[-74.778818814999966,40.288776673000029,0],[-74.692984577999937,40.263316477000046,0],[-74.641798191999953,40.284665799000038,0]]]},"properties":{"OBJECTID":112,"Position":"N5S","Low":11000,"High":13000,"Notes":null,"Fill":"#5C8944","Stroke":"#5C8944","Sector":"South"}},{"type":"Feature","id":113,"geometry":{"type":"Polygon","coordinates":[[[-74.452690832999963,40.144383056000038,0],[-74.415334169999937,40.177504333000059,0],[-74.365773333999982,40.221446111000034,0],[-74.388388031999966,40.251006630000063,0],[-74.397196110999971,40.262520000000052,0],[-74.429959370999939,40.275226962000033,0],[-74.431132008999953,40.275681760000055,0],[-74.477198748999967,40.293548368000074,0],[-74.595759962999978,40.269214489000035,0],[-74.619540288999985,40.264333918000034,0],[-74.66497609399994,40.255008586000031,0],[-74.709915186999979,40.24578490600004,0],[-74.724295603999963,40.230844554000043,0],[-74.747232777999955,40.206976389000033,0],[-74.758353055999976,40.138930000000073,0],[-74.703168850999987,40.140409780000027,0],[-74.625282221999953,40.142498333000049,0],[-74.54920999899997,40.077791667000042,0],[-74.482479443999978,40.123648333000062,0],[-74.452690832999963,40.144383056000038,0]]]},"properties":{"OBJECTID":113,"Position":"N5S","Low":12000,"High":17000,"Notes":null,"Fill":"#5C8944","Stroke":"#5C8944","Sector":"South"}},{"type":"Feature","id":114,"geometry":{"type":"Polygon","coordinates":[[[-74.365575277999937,40.162489444000073,0],[-74.415334169999937,40.177504333000059,0],[-74.452690832999963,40.144383056000038,0],[-74.482479443999978,40.123648333000062,0],[-74.404546110999945,40.098959444000059,0],[-74.365575277999937,40.162489444000073,0]]]},"properties":{"OBJECTID":114,"Position":"N5S","Low":12000,"High":15000,"Notes":null,"Fill":"#5C8944","Stroke":"#5C8944","Sector":"South"}},{"type":"Feature","id":115,"geometry":{"type":"Polygon","coordinates":[[[-74.365773333999982,40.221446111000034,0],[-74.415334169999937,40.177504333000059,0],[-74.365575277999937,40.162489444000073,0],[-74.365773333999982,40.221446111000034,0]]]},"properties":{"OBJECTID":115,"Position":"N5S","Low":7000,"High":7000,"Notes":null,"Fill":"#5C8944","Stroke":"#5C8944","Sector":"South"}},{"type":"Feature","id":116,"geometry":{"type":"Polygon","coordinates":[[[-74.365773333999982,40.221446111000034,0],[-74.415334169999937,40.177504333000059,0],[-74.365575277999937,40.162489444000073,0],[-74.365773333999982,40.221446111000034,0]]]},"properties":{"OBJECTID":116,"Position":"N5S","Low":12000,"High":17000,"Notes":null,"Fill":"#5C8944","Stroke":"#5C8944","Sector":"South"}},{"type":"Feature","id":117,"geometry":{"type":"Polygon","coordinates":[[[-74.365773333999982,40.221446111000034,0],[-74.268299275999937,40.310247870000069,0],[-74.273533498999939,40.341368088000024,0],[-74.388388031999966,40.251006630000063,0],[-74.365773333999982,40.221446111000034,0]]]},"properties":{"OBJECTID":117,"Position":"N5S","Low":9000,"High":17000,"Notes":null,"Fill":"#5C8944","Stroke":"#5C8944","Sector":"South"}},{"type":"Feature","id":118,"geometry":{"type":"Polygon","coordinates":[[[-74.268299275999937,40.310247870000069,0],[-74.187343055999975,40.384001389000048,0],[-74.194040555999948,40.383234444000038,0],[-74.229568055999948,40.35484583300007,0],[-74.273533498999939,40.341368088000024,0],[-74.268299275999937,40.310247870000069,0]]]},"properties":{"OBJECTID":118,"Position":"N5S","Low":8000,"High":17000,"Notes":null,"Fill":"#5C8944","Stroke":"#5C8944","Sector":"South"}},{"type":"Feature","id":119,"geometry":{"type":"Polygon","coordinates":[[[-74.028489443999945,40.497497778000024,0],[-74.015604780999979,40.518559225000047,0],[-73.973589999999945,40.587133333000054,0],[-73.948345492999977,40.620276779000051,0],[-73.925268332999963,40.650540556000067,0],[-74.109741388999964,40.66222444400006,0],[-74.081502221999983,40.432286667000028,0],[-74.028489443999945,40.497497778000024,0]]]},"properties":{"OBJECTID":119,"Position":"N5S","Low":11000,"High":12000,"Notes":null,"Fill":"#5C8944","Stroke":"#5C8944","Sector":"South"}},{"type":"Feature","id":120,"geometry":{"type":"Polygon","coordinates":[[[-74.02222722099998,40.191659444000038,0],[-73.998300793999988,40.232535553000048,0],[-73.97505027699998,40.272203889000025,0],[-73.938873055999977,40.349766944000066,0],[-73.940503072261066,40.350334491501037,0],[-73.942130813283953,40.350908531865215,0],[-73.943756253205663,40.351489055971726,0],[-73.945379366199745,40.352076054596701,0],[-73.947000126476766,40.352669518413386,0],[-73.948618508284667,40.35326943799231,0],[-73.950234485909149,40.353875803801408,0],[-73.951848033674153,40.354488606206225,0],[-73.953459125942203,40.355107835470001,0],[-73.955067737114845,40.35573348175388,0],[-73.956673841633062,40.356365535117042,0],[-73.958277413977626,40.357003985516869,0],[-73.959878428669569,40.357648822809104,0],[-73.961476860270579,40.358300036747984,0],[-73.963072683383345,40.358957616986466,0],[-73.964665872652034,40.35962155307633,0],[-73.966256402762653,40.360291834468377,0],[-73.967844248443441,40.36096845051258,0],[-73.969429384465329,40.36165139045827,0],[-73.971011785642261,40.362340643454296,0],[-73.97259142683167,40.363036198549196,0],[-73.974168282934798,40.363738044691381,0],[-73.975742328897198,40.364446170729302,0],[-73.977313539709002,40.365160565411621,0],[-73.978881890405461,40.365881217387411,0],[-73.980447356067231,40.366608115206319,0],[-73.982009911820796,40.367341247318748,0],[-73.983569532838914,40.368080602076049,0],[-73.985126194340936,40.36882616773071,0],[-73.986679871593267,40.36957793243652,0],[-73.988230539909694,40.370335884248775,0],[-73.989778174651846,40.371100011124483,0],[-73.991322751229546,40.371870300922502,0],[-73.992864245101174,40.372646741403805,0],[-73.99440263177415,40.373429320231615,0],[-73.995937886805194,40.374218024971633,0],[-73.997469985800848,40.375012843092222,0],[-73.998998904417761,40.375813761964601,0],[-74.00052461836313,40.376620768863084,0],[-74.002047103395071,40.377433850965218,0],[-74.003566335323001,40.378252995352049,0],[-74.005082290008005,40.379078189008283,0],[-74.006594943363282,40.379909418822514,0],[-74.008104271354455,40.380746671587431,0],[-74.00961024999998,40.381589934000033,0],[-74.011028893021475,40.382364849632921,0],[-74.012444193870678,40.383145852684621,0],[-74.013856126426532,40.383932928740805,0],[-74.01526466463018,40.384726063275039,0],[-74.016669782485351,40.385525241649106,0],[-74.018071454058969,40.38633044911321,0],[-74.019469653481494,40.387141670806301,0],[-74.020864354947534,40.387958891756327,0],[-74.022255532716201,40.388782096880504,0],[-74.023643161111693,40.389611270985611,0],[-74.025027214523647,40.390446398768255,0],[-74.026407667407753,40.391287464815179,0],[-74.027784494286109,40.392134453603497,0],[-74.029157669747761,40.392987349501048,0],[-74.030527168449112,40.393846136766612,0],[-74.031892965114466,40.394710799550275,0],[-74.03325503453641,40.395581321893644,0],[-74.034613351576368,40.396457687730212,0],[-74.035967891164972,40.397339880885603,0],[-74.0373186283026,40.398227885077908,0],[-74.038665538059789,40.399121683917961,0],[-74.04000859557776,40.400021260909639,0],[-74.041347776068775,40.400926599450194,0],[-74.042683054816663,40.401837682830532,0],[-74.044014407177315,40.402754494235523,0],[-74.045341808579025,40.403677016744339,0],[-74.046665234523019,40.404605233330734,0],[-74.047984660583936,40.405539126863374,0],[-74.049300062410182,40.406478680106147,0],[-74.050611415724489,40.407423875718486,0],[-74.05191869632425,40.408374696255699,0],[-74.053221880082091,40.409331124169263,0],[-74.054520942946183,40.410293141807166,0],[-74.055815860940811,40.411260731414245,0],[-74.057106610166713,40.412233875132479,0],[-74.058393166801594,40.413212555001358,0],[-74.059675507100536,40.414196752958183,0],[-74.060953607396442,40.415186450838426,0],[-74.062227444100429,40.416181630376038,0],[-74.063496993702358,40.4171822732038,0],[-74.064762232771187,40.418188360853676,0],[-74.06602313795544,40.419199874757119,0],[-74.067279685983607,40.420216796245448,0],[-74.068531853664609,40.421239106550175,0],[-74.06977961788823,40.422266786803362,0],[-74.07102295562548,40.42329981803794,0],[-74.072261843929127,40.424338181188112,0],[-74.073496259933989,40.425381857089654,0],[-74.074726180857468,40.426430826480285,0],[-74.075951583999938,40.427485070000046,0],[-74.077068701415172,40.428437279343832,0],[-74.078182338711471,40.429393556461655,0],[-74.079292481076919,40.430353888634535,0],[-74.080399113746012,40.431318263089551,0],[-74.081502221999983,40.432286667000028,0],[-74.087677221999968,40.424844722000046,0],[-74.130068227999971,40.407484201000045,0],[-74.148068359999968,40.400112550000074,0],[-74.187343055999975,40.384001389000048,0],[-74.268299275999937,40.310247870000069,0],[-74.33410454999995,40.250297313000033,0],[-73.999918610999941,40.154205833000049,0],[-74.02222722099998,40.191659444000038,0]]]},"properties":{"OBJECTID":120,"Position":"N5S","Low":5000,"High":17000,"Notes":null,"Fill":"#5C8944","Stroke":"#5C8944","Sector":"South"}},{"type":"Feature","id":121,"geometry":{"type":"Polygon","coordinates":[[[-74.33410454999995,40.250297313000033,0],[-74.365773333999982,40.221446111000034,0],[-74.365575277999937,40.162489444000073,0],[-74.25829083299999,40.124986111000055,0],[-74.312689443999943,40.070644444000038,0],[-74.135297778999984,40.015869167000062,0],[-73.999918610999941,40.154205833000049,0],[-74.33410454999995,40.250297313000033,0]]]},"properties":{"OBJECTID":121,"Position":"N5S","Low":7000,"High":17000,"Notes":null,"Fill":"#5C8944","Stroke":"#5C8944","Sector":"South"}},{"type":"Feature","id":122,"geometry":{"type":"Polygon","coordinates":[[[-74.404546110999945,40.098959444000059,0],[-74.312689443999943,40.070644444000038,0],[-74.25829083299999,40.124986111000055,0],[-74.365575277999937,40.162489444000073,0],[-74.404546110999945,40.098959444000059,0]]]},"properties":{"OBJECTID":122,"Position":"N5S","Low":7000,"High":15000,"Notes":null,"Fill":"#5C8944","Stroke":"#5C8944","Sector":"South"}}]}