{"hasZ":true,"type":"FeatureCollection","features":[{"type":"Feature","id":140,"geometry":{"type":"Polygon","coordinates":[[[-76.18494416599998,42.550343056000031,0],[-76.690880831999948,42.76878638900007,0],[-76.697228055999972,42.727815556000053,0],[-76.802773887999933,42.608305278000046,0],[-76.891189443999963,42.640646667000055,0],[-77.099902220999979,42.65832944400006,0],[-77.176028157999951,42.602896444000066,0],[-76.430655356999978,42.285495929000035,0],[-76.25948916599998,42.452572222000072,0],[-76.18494416599998,42.550343056000031,0]]]},"properties":{"OBJECTID":140,"Position":"EN","Low":0,"High":4000,"Notes":null,"Fill":"#FF00C5","Stroke":"#FF00C5","Sector":"Elmira North"}},{"type":"Feature","id":141,"geometry":{"type":"Polygon","coordinates":[[[-77.176028157999951,42.602896444000066,0],[-77.588832776999936,42.299961667000048,0],[-77.450156665999941,42.224669722000044,0],[-77.455291666999983,41.820608889000027,0],[-77.235840277999955,42.175251944000081,0],[-76.917965742999968,42.493930047000049,0],[-77.176028157999951,42.602896444000066,0]]]},"properties":{"OBJECTID":141,"Position":"ES","Low":0,"High":8000,"Notes":null,"Fill":"#FF73DF","Stroke":"#FF73DF","Sector":"Elmira South"}},{"type":"Feature","id":142,"geometry":{"type":"Polygon","coordinates":[[[-77.455291666999983,41.820608889000027,0],[-77.374414166999941,41.749785000000031,0],[-77.166389442999957,41.730590556000038,0],[-76.617903888999933,41.67408666700004,0],[-76.418073611999944,41.931859167000027,0],[-76.536029721999967,41.983404722000046,0],[-76.511286388999963,42.206400000000031,0],[-76.430655356999978,42.285495929000035,0],[-76.917965742999968,42.493930047000049,0],[-77.235840277999955,42.175251944000081,0],[-77.455291666999983,41.820608889000027,0]]]},"properties":{"OBJECTID":142,"Position":"ES","Low":0,"High":8000,"Notes":null,"Fill":"#FF73DF","Stroke":"#FF73DF","Sector":"Elmira South"}},{"type":"Feature","id":143,"geometry":{"type":"Polygon","coordinates":[[[-77.455291666999983,41.820608889000027,0],[-77.638786943999946,41.544450833000042,0],[-77.206958054999973,41.472387500000025,0],[-77.166389442999957,41.730590556000038,0],[-77.374414166999941,41.749785000000031,0],[-77.455291666999983,41.820608889000027,0]]]},"properties":{"OBJECTID":143,"Position":"ES","Low":0,"High":5000,"Notes":null,"Fill":"#FF73DF","Stroke":"#FF73DF","Sector":"Elmira South"}}]}